[
    {
        "name": "Abilene Christian University",
        "city": "Abilene",
        "state": "Texas",
        "zip": "79699"
    },
    {
        "name": "Adams State University",
        "city": "Alamosa",
        "state": "Colorado",
        "zip": "81101"
    },
    {
        "name": "Adelphi University",
        "city": "Garden City",
        "state": "New York",
        "zip": "11530"
    },
    {
        "name": "Adrian College",
        "city": "Adrian",
        "state": "Michigan",
        "zip": "49221"
    },
    {
        "name": "Agnes Scott College",
        "city": "Decatur",
        "state": "Georgia",
        "zip": "30030"
    },
    {
        "name": "Alabama A & M University",
        "city": "Normal",
        "state": "Alabama",
        "zip": "35762"
    },
    {
        "name": "Alabama State University",
        "city": "Montgomery",
        "state": "Alabama",
        "zip": "36104"
    },
    {
        "name": "Alaska Pacific University",
        "city": "Anchorage",
        "state": "Alaska",
        "zip": "99508"
    },
    {
        "name": "Albany State University",
        "city": "Albany",
        "state": "Georgia",
        "zip": "31705"
    },
    {
        "name": "Albertus Magnus College",
        "city": "New Haven",
        "state": "Connecticut",
        "zip": "06511"
    },
    {
        "name": "Albion College",
        "city": "Albion",
        "state": "Michigan",
        "zip": "49224"
    },
    {
        "name": "Albright College",
        "city": "Reading",
        "state": "Pennsylvania",
        "zip": "19612"
    },
    {
        "name": "Alcorn State University",
        "city": "Alcorn State",
        "state": "Mississippi",
        "zip": "39096"
    },
    {
        "name": "Alderson Broaddus University",
        "city": "Philippi",
        "state": "West Virginia",
        "zip": "26416"
    },
    {
        "name": "Alfred University",
        "city": "Alfred",
        "state": "New York",
        "zip": "14802"
    },
    {
        "name": "Alice Lloyd College",
        "city": "Pippa Passes",
        "state": "Kentucky",
        "zip": "41844"
    },
    {
        "name": "Allegheny College",
        "city": "Meadville",
        "state": "Pennsylvania",
        "zip": "16335"
    },
    {
        "name": "Allen University",
        "city": "Columbia",
        "state": "South Carolina",
        "zip": "29204"
    },
    {
        "name": "Alma College",
        "city": "Alma",
        "state": "Michigan",
        "zip": "48801"
    },
    {
        "name": "Alvernia University",
        "city": "Reading",
        "state": "Pennsylvania",
        "zip": "19607"
    },
    {
        "name": "Alverno College",
        "city": "Milwaukee",
        "state": "Wisconsin",
        "zip": "53234"
    },
    {
        "name": "American International College",
        "city": "Springfield",
        "state": "Massachusetts",
        "zip": "01109"
    },
    {
        "name": "American Jewish University",
        "city": "Los Angeles",
        "state": "California",
        "zip": "90077"
    },
    {
        "name": "American University",
        "city": "Washington",
        "state": "District of Columbia",
        "zip": "20016"
    },
    {
        "name": "Amherst College",
        "city": "Amherst",
        "state": "Massachusetts",
        "zip": "01002"
    },
    {
        "name": "Anderson University",
        "city": "Anderson",
        "state": "Indiana",
        "zip": "46012"
    },
    {
        "name": "Anderson University",
        "city": "Anderson",
        "state": "South Carolina",
        "zip": "29621"
    },
    {
        "name": "Andrews University",
        "city": "Berrien Springs",
        "state": "Michigan",
        "zip": "49104"
    },
    {
        "name": "Angelo State University",
        "city": "San Angelo",
        "state": "Texas",
        "zip": "76909"
    },
    {
        "name": "Anna Maria College",
        "city": "Paxton",
        "state": "Massachusetts",
        "zip": "01612"
    },
    {
        "name": "Antioch University-Seattle",
        "city": "Seattle",
        "state": "Washington",
        "zip": "98121"
    },
    {
        "name": "Appalachian State University",
        "city": "Boone",
        "state": "North Carolina",
        "zip": "28608"
    },
    {
        "name": "Aquinas College",
        "city": "Grand Rapids",
        "state": "Michigan",
        "zip": "49506"
    },
    {
        "name": "Arcadia University",
        "city": "Glenside",
        "state": "Pennsylvania",
        "zip": "19038"
    },
    {
        "name": "Arizona Christian University",
        "city": "Phoenix",
        "state": "Arizona",
        "zip": "85032"
    },
    {
        "name": "Arizona State University-Downtown Phoenix",
        "city": "Phoenix",
        "state": "Arizona",
        "zip": "85004"
    },
    {
        "name": "Arizona State University-Polytechnic",
        "city": "Mesa",
        "state": "Arizona",
        "zip": "85212"
    },
    {
        "name": "Arizona State University-Skysong",
        "city": "Scottsdale",
        "state": "Arizona",
        "zip": "85257"
    },
    {
        "name": "Arizona State University-Tempe",
        "city": "Tempe",
        "state": "Arizona",
        "zip": "85287"
    },
    {
        "name": "Arizona State University-West",
        "city": "Glendale",
        "state": "Arizona",
        "zip": "85306"
    },
    {
        "name": "Arkansas State University",
        "city": "Jonesboro",
        "state": "Arkansas",
        "zip": "72401"
    },
    {
        "name": "Arkansas Tech University",
        "city": "Russellville",
        "state": "Arkansas",
        "zip": "72801"
    },
    {
        "name": "Armstrong State University",
        "city": "Savannah",
        "state": "Georgia",
        "zip": "31419"
    },
    {
        "name": "Asbury University",
        "city": "Wilmore",
        "state": "Kentucky",
        "zip": "40390"
    },
    {
        "name": "Ashland University",
        "city": "Ashland",
        "state": "Ohio",
        "zip": "44805"
    },
    {
        "name": "Assumption College",
        "city": "Worcester",
        "state": "Massachusetts",
        "zip": "01609"
    },
    {
        "name": "Auburn University",
        "city": "Auburn",
        "state": "Alabama",
        "zip": "36849"
    },
    {
        "name": "Auburn University at Montgomery",
        "city": "Montgomery",
        "state": "Alabama",
        "zip": "36117"
    },
    {
        "name": "Augsburg College",
        "city": "Minneapolis",
        "state": "Minnesota",
        "zip": "55454"
    },
    {
        "name": "Augusta University",
        "city": "Augusta",
        "state": "Georgia",
        "zip": "30912"
    },
    {
        "name": "Augustana College",
        "city": "Rock Island",
        "state": "Illinois",
        "zip": "61201"
    },
    {
        "name": "Augustana University",
        "city": "Sioux Falls",
        "state": "South Dakota",
        "zip": "57197"
    },
    {
        "name": "Aurora University",
        "city": "Aurora",
        "state": "Illinois",
        "zip": "60506"
    },
    {
        "name": "Austin College",
        "city": "Sherman",
        "state": "Texas",
        "zip": "75090"
    },
    {
        "name": "Austin Peay State University",
        "city": "Clarksville",
        "state": "Tennessee",
        "zip": "37044"
    },
    {
        "name": "Ave Maria University",
        "city": "Ave Maria",
        "state": "Florida",
        "zip": "34142"
    },
    {
        "name": "Averett University",
        "city": "Danville",
        "state": "Virginia",
        "zip": "24541"
    },
    {
        "name": "Avila University",
        "city": "Kansas City",
        "state": "Missouri",
        "zip": "64145"
    },
    {
        "name": "Azusa Pacific University",
        "city": "Azusa",
        "state": "California",
        "zip": "91702"
    },
    {
        "name": "Bacone College",
        "city": "Muskogee",
        "state": "Oklahoma",
        "zip": "74403"
    },
    {
        "name": "Baker University",
        "city": "Baldwin City",
        "state": "Kansas",
        "zip": "66006"
    },
    {
        "name": "Baldwin Wallace University",
        "city": "Berea",
        "state": "Ohio",
        "zip": "44017"
    },
    {
        "name": "Ball State University",
        "city": "Muncie",
        "state": "Indiana",
        "zip": "47306"
    },
    {
        "name": "Bard College",
        "city": "Annandale-On-Hudson",
        "state": "New York",
        "zip": "12504"
    },
    {
        "name": "Barnard College",
        "city": "New York",
        "state": "New York",
        "zip": "10027"
    },
    {
        "name": "Barry University",
        "city": "Miami",
        "state": "Florida",
        "zip": "33161"
    },
    {
        "name": "Barton College",
        "city": "Wilson",
        "state": "North Carolina",
        "zip": "27893"
    },
    {
        "name": "Bates College",
        "city": "Lewiston",
        "state": "Maine",
        "zip": "04240"
    },
    {
        "name": "Bay Path University",
        "city": "Longmeadow",
        "state": "Massachusetts",
        "zip": "01106"
    },
    {
        "name": "Baylor University",
        "city": "Waco",
        "state": "Texas",
        "zip": "76798"
    },
    {
        "name": "Beacon College",
        "city": "Leesburg",
        "state": "Florida",
        "zip": "34748"
    },
    {
        "name": "Becker College",
        "city": "Worcester",
        "state": "Massachusetts",
        "zip": "01609"
    },
    {
        "name": "Belhaven University",
        "city": "Jackson",
        "state": "Mississippi",
        "zip": "39202"
    },
    {
        "name": "Bellarmine University",
        "city": "Louisville",
        "state": "Kentucky",
        "zip": "40205"
    },
    {
        "name": "Bellevue University",
        "city": "Bellevue",
        "state": "Nebraska",
        "zip": "68005"
    },
    {
        "name": "Belmont Abbey College",
        "city": "Belmont",
        "state": "North Carolina",
        "zip": "28012"
    },
    {
        "name": "Belmont University",
        "city": "Nashville",
        "state": "Tennessee",
        "zip": "37212"
    },
    {
        "name": "Beloit College",
        "city": "Beloit",
        "state": "Wisconsin",
        "zip": "53511"
    },
    {
        "name": "Bemidji State University",
        "city": "Bemidji",
        "state": "Minnesota",
        "zip": "56601"
    },
    {
        "name": "Benedict College",
        "city": "Columbia",
        "state": "South Carolina",
        "zip": "29204"
    },
    {
        "name": "Benedictine College",
        "city": "Atchison",
        "state": "Kansas",
        "zip": "66002"
    },
    {
        "name": "Benedictine University",
        "city": "Lisle",
        "state": "Illinois",
        "zip": "60532"
    },
    {
        "name": "Bennett College",
        "city": "Greensboro",
        "state": "North Carolina",
        "zip": "27401"
    },
    {
        "name": "Bennington College",
        "city": "Bennington",
        "state": "Vermont",
        "zip": "05201"
    },
    {
        "name": "Bentley University",
        "city": "Waltham",
        "state": "Massachusetts",
        "zip": "02452"
    },
    {
        "name": "Berea College",
        "city": "Berea",
        "state": "Kentucky",
        "zip": "40404"
    },
    {
        "name": "Berry College",
        "city": "Mount Berry",
        "state": "Georgia",
        "zip": "30149"
    },
    {
        "name": "Bethany College",
        "city": "Lindsborg",
        "state": "Kansas",
        "zip": "67456"
    },
    {
        "name": "Bethany College",
        "city": "Bethany",
        "state": "West Virginia",
        "zip": "26032"
    },
    {
        "name": "Bethany Lutheran College",
        "city": "Mankato",
        "state": "Minnesota",
        "zip": "56001"
    },
    {
        "name": "Bethel College-Indiana",
        "city": "Mishawaka",
        "state": "Indiana",
        "zip": "46545"
    },
    {
        "name": "Bethel College-North Newton",
        "city": "North Newton",
        "state": "Kansas",
        "zip": "67117"
    },
    {
        "name": "Bethel University",
        "city": "Saint Paul",
        "state": "Minnesota",
        "zip": "55112"
    },
    {
        "name": "Bethel University",
        "city": "McKenzie",
        "state": "Tennessee",
        "zip": "38201"
    },
    {
        "name": "Bethune-Cookman University",
        "city": "Daytona Beach",
        "state": "Florida",
        "zip": "32114"
    },
    {
        "name": "Biola University",
        "city": "La Mirada",
        "state": "California",
        "zip": "90639"
    },
    {
        "name": "Birmingham Southern College",
        "city": "Birmingham",
        "state": "Alabama",
        "zip": "35254"
    },
    {
        "name": "Black Hills State University",
        "city": "Spearfish",
        "state": "South Dakota",
        "zip": "57799"
    },
    {
        "name": "Blackburn College",
        "city": "Carlinville",
        "state": "Illinois",
        "zip": "62626"
    },
    {
        "name": "Bloomfield College",
        "city": "Bloomfield",
        "state": "New Jersey",
        "zip": "07003"
    },
    {
        "name": "Bloomsburg University of Pennsylvania",
        "city": "Bloomsburg",
        "state": "Pennsylvania",
        "zip": "17815"
    },
    {
        "name": "Blue Mountain College",
        "city": "Blue Mountain",
        "state": "Mississippi",
        "zip": "38610"
    },
    {
        "name": "Bluefield College",
        "city": "Bluefield",
        "state": "Virginia",
        "zip": "24605"
    },
    {
        "name": "Bluefield State College",
        "city": "Bluefield",
        "state": "West Virginia",
        "zip": "24701"
    },
    {
        "name": "Bluffton University",
        "city": "Bluffton",
        "state": "Ohio",
        "zip": "45817"
    },
    {
        "name": "Boise State University",
        "city": "Boise",
        "state": "Idaho",
        "zip": "83725"
    },
    {
        "name": "Boricua College",
        "city": "New York",
        "state": "New York",
        "zip": "10032"
    },
    {
        "name": "Boston College",
        "city": "Chestnut Hill",
        "state": "Massachusetts",
        "zip": "02467"
    },
    {
        "name": "Boston University",
        "city": "Boston",
        "state": "Massachusetts",
        "zip": "02215"
    },
    {
        "name": "Bowdoin College",
        "city": "Brunswick",
        "state": "Maine",
        "zip": "04011"
    },
    {
        "name": "Bowie State University",
        "city": "Bowie",
        "state": "Maryland",
        "zip": "20715"
    },
    {
        "name": "Bowling Green State University",
        "city": "Bowling Green",
        "state": "Ohio",
        "zip": "43403"
    },
    {
        "name": "Bradley University",
        "city": "Peoria",
        "state": "Illinois",
        "zip": "61625"
    },
    {
        "name": "Brandeis University",
        "city": "Waltham",
        "state": "Massachusetts",
        "zip": "02454"
    },
    {
        "name": "Brandman University",
        "city": "Irvine",
        "state": "California",
        "zip": "92618"
    },
    {
        "name": "Brenau University",
        "city": "Gainesville",
        "state": "Georgia",
        "zip": "30501"
    },
    {
        "name": "Brescia University",
        "city": "Owensboro",
        "state": "Kentucky",
        "zip": "42301"
    },
    {
        "name": "Brevard College",
        "city": "Brevard",
        "state": "North Carolina",
        "zip": "28712"
    },
    {
        "name": "Brewton-Parker College",
        "city": "Mount Vernon",
        "state": "Georgia",
        "zip": "30445"
    },
    {
        "name": "Briar Cliff University",
        "city": "Sioux City",
        "state": "Iowa",
        "zip": "51104"
    },
    {
        "name": "Bridgewater College",
        "city": "Bridgewater",
        "state": "Virginia",
        "zip": "22812"
    },
    {
        "name": "Bridgewater State University",
        "city": "Bridgewater",
        "state": "Massachusetts",
        "zip": "02325"
    },
    {
        "name": "Brigham Young University-Hawaii",
        "city": "Laie",
        "state": "Hawaii",
        "zip": "96762"
    },
    {
        "name": "Brigham Young University-Idaho",
        "city": "Rexburg",
        "state": "Idaho",
        "zip": "83460"
    },
    {
        "name": "Brigham Young University-Provo",
        "city": "Provo",
        "state": "Utah",
        "zip": "84602"
    },
    {
        "name": "Brown University",
        "city": "Providence",
        "state": "Rhode Island",
        "zip": "02912"
    },
    {
        "name": "Bryan College-Dayton",
        "city": "Dayton",
        "state": "Tennessee",
        "zip": "37321"
    },
    {
        "name": "Bryant University",
        "city": "Smithfield",
        "state": "Rhode Island",
        "zip": "02917"
    },
    {
        "name": "Bryn Athyn College of the New Church",
        "city": "Bryn Athyn",
        "state": "Pennsylvania",
        "zip": "19009"
    },
    {
        "name": "Bryn Mawr College",
        "city": "Bryn Mawr",
        "state": "Pennsylvania",
        "zip": "19010"
    },
    {
        "name": "Bucknell University",
        "city": "Lewisburg",
        "state": "Pennsylvania",
        "zip": "17837"
    },
    {
        "name": "Buena Vista University",
        "city": "Storm Lake",
        "state": "Iowa",
        "zip": "50588"
    },
    {
        "name": "Butler University",
        "city": "Indianapolis",
        "state": "Indiana",
        "zip": "46208"
    },
    {
        "name": "Cabrini College",
        "city": "Radnor",
        "state": "Pennsylvania",
        "zip": "19087"
    },
    {
        "name": "Cairn University-Langhorne",
        "city": "Langhorne",
        "state": "Pennsylvania",
        "zip": "19047"
    },
    {
        "name": "Caldwell University",
        "city": "Caldwell",
        "state": "New Jersey",
        "zip": "07006"
    },
    {
        "name": "California Baptist University",
        "city": "Riverside",
        "state": "California",
        "zip": "92504"
    },
    {
        "name": "California Institute of Technology",
        "city": "Pasadena",
        "state": "California",
        "zip": "91125"
    },
    {
        "name": "California Lutheran University",
        "city": "Thousand Oaks",
        "state": "California",
        "zip": "91360"
    },
    {
        "name": "California Polytechnic State University-San Luis Obispo",
        "city": "San Luis Obispo",
        "state": "California",
        "zip": "93407"
    },
    {
        "name": "California State Polytechnic University-Pomona",
        "city": "Pomona",
        "state": "California",
        "zip": "91768"
    },
    {
        "name": "California State University-Bakersfield",
        "city": "Bakersfield",
        "state": "California",
        "zip": "93311"
    },
    {
        "name": "California State University-Channel Islands",
        "city": "Camarillo",
        "state": "California",
        "zip": "93012"
    },
    {
        "name": "California State University-Chico",
        "city": "Chico",
        "state": "California",
        "zip": "95929"
    },
    {
        "name": "California State University-Dominguez Hills",
        "city": "Carson",
        "state": "California",
        "zip": "90747"
    },
    {
        "name": "California State University-East Bay",
        "city": "Hayward",
        "state": "California",
        "zip": "94542"
    },
    {
        "name": "California State University-Fresno",
        "city": "Fresno",
        "state": "California",
        "zip": "93740"
    },
    {
        "name": "California State University-Fullerton",
        "city": "Fullerton",
        "state": "California",
        "zip": "92831"
    },
    {
        "name": "California State University-Long Beach",
        "city": "Long Beach",
        "state": "California",
        "zip": "90840"
    },
    {
        "name": "California State University-Los Angeles",
        "city": "Los Angeles",
        "state": "California",
        "zip": "90032"
    },
    {
        "name": "California State University-Monterey Bay",
        "city": "Seaside",
        "state": "California",
        "zip": "93955"
    },
    {
        "name": "California State University-Northridge",
        "city": "Northridge",
        "state": "California",
        "zip": "91330"
    },
    {
        "name": "California State University-Sacramento",
        "city": "Sacramento",
        "state": "California",
        "zip": "95819"
    },
    {
        "name": "California State University-San Bernardino",
        "city": "San Bernardino",
        "state": "California",
        "zip": "92407"
    },
    {
        "name": "California State University-San Marcos",
        "city": "San Marcos",
        "state": "California",
        "zip": "92096"
    },
    {
        "name": "California State University-Stanislaus",
        "city": "Turlock",
        "state": "California",
        "zip": "95382"
    },
    {
        "name": "California University of Management and Sciences",
        "city": "Anaheim",
        "state": "California",
        "zip": "92801"
    },
    {
        "name": "California University of Pennsylvania",
        "city": "California",
        "state": "Pennsylvania",
        "zip": "15419"
    },
    {
        "name": "Calumet College of Saint Joseph",
        "city": "Whiting",
        "state": "Indiana",
        "zip": "46394"
    },
    {
        "name": "Calvin College",
        "city": "Grand Rapids",
        "state": "Michigan",
        "zip": "49546"
    },
    {
        "name": "Cambridge College",
        "city": "Cambridge",
        "state": "Massachusetts",
        "zip": "02138"
    },
    {
        "name": "Cameron University",
        "city": "Lawton",
        "state": "Oklahoma",
        "zip": "73505"
    },
    {
        "name": "Campbell University",
        "city": "Buies Creek",
        "state": "North Carolina",
        "zip": "27506"
    },
    {
        "name": "Campbellsville University",
        "city": "Campbellsville",
        "state": "Kentucky",
        "zip": "42718"
    },
    {
        "name": "Canisius College",
        "city": "Buffalo",
        "state": "New York",
        "zip": "14208"
    },
    {
        "name": "Capital University",
        "city": "Columbus",
        "state": "Ohio",
        "zip": "43209"
    },
    {
        "name": "Cardinal Stritch University",
        "city": "Milwaukee",
        "state": "Wisconsin",
        "zip": "53217"
    },
    {
        "name": "Carleton College",
        "city": "Northfield",
        "state": "Minnesota",
        "zip": "55057"
    },
    {
        "name": "Carlow University",
        "city": "Pittsburgh",
        "state": "Pennsylvania",
        "zip": "15213"
    },
    {
        "name": "Carnegie Mellon University",
        "city": "Pittsburgh",
        "state": "Pennsylvania",
        "zip": "15213"
    },
    {
        "name": "Carroll College",
        "city": "Helena",
        "state": "Montana",
        "zip": "59625"
    },
    {
        "name": "Carroll University",
        "city": "Waukesha",
        "state": "Wisconsin",
        "zip": "53186"
    },
    {
        "name": "Carson-Newman University",
        "city": "Jefferson City",
        "state": "Tennessee",
        "zip": "37760"
    },
    {
        "name": "Carthage College",
        "city": "Kenosha",
        "state": "Wisconsin",
        "zip": "53140"
    },
    {
        "name": "Case Western Reserve University",
        "city": "Cleveland",
        "state": "Ohio",
        "zip": "44106"
    },
    {
        "name": "Castleton University",
        "city": "Castleton",
        "state": "Vermont",
        "zip": "05735"
    },
    {
        "name": "Catawba College",
        "city": "Salisbury",
        "state": "North Carolina",
        "zip": "28144"
    },
    {
        "name": "Catholic University of America",
        "city": "Washington",
        "state": "District of Columbia",
        "zip": "20064"
    },
    {
        "name": "Cazenovia College",
        "city": "Cazenovia",
        "state": "New York",
        "zip": "13035"
    },
    {
        "name": "Cedar Crest College",
        "city": "Allentown",
        "state": "Pennsylvania",
        "zip": "18104"
    },
    {
        "name": "Cedarville University",
        "city": "Cedarville",
        "state": "Ohio",
        "zip": "45314"
    },
    {
        "name": "Centenary College",
        "city": "Hackettstown",
        "state": "New Jersey",
        "zip": "07840"
    },
    {
        "name": "Centenary College of Louisiana",
        "city": "Shreveport",
        "state": "Louisiana",
        "zip": "71134"
    },
    {
        "name": "Central Baptist College",
        "city": "Conway",
        "state": "Arkansas",
        "zip": "72034"
    },
    {
        "name": "Central Christian College of Kansas",
        "city": "McPherson",
        "state": "Kansas",
        "zip": "67460"
    },
    {
        "name": "Central College",
        "city": "Pella",
        "state": "Iowa",
        "zip": "50219"
    },
    {
        "name": "Central Connecticut State University",
        "city": "New Britain",
        "state": "Connecticut",
        "zip": "06050"
    },
    {
        "name": "Central Methodist University",
        "city": "Fayette",
        "state": "Missouri",
        "zip": "65248"
    },
    {
        "name": "Central Michigan University",
        "city": "Mount Pleasant",
        "state": "Michigan",
        "zip": "48859"
    },
    {
        "name": "Central State University",
        "city": "Wilberforce",
        "state": "Ohio",
        "zip": "45384"
    },
    {
        "name": "Central Washington University",
        "city": "Ellensburg",
        "state": "Washington",
        "zip": "98926"
    },
    {
        "name": "Centre College",
        "city": "Danville",
        "state": "Kentucky",
        "zip": "40422"
    },
    {
        "name": "Chadron State College",
        "city": "Chadron",
        "state": "Nebraska",
        "zip": "69337"
    },
    {
        "name": "Chaminade University of Honolulu",
        "city": "Honolulu",
        "state": "Hawaii",
        "zip": "96816"
    },
    {
        "name": "Champlain College",
        "city": "Burlington",
        "state": "Vermont",
        "zip": "05401"
    },
    {
        "name": "Chapman University",
        "city": "Orange",
        "state": "California",
        "zip": "92866"
    },
    {
        "name": "Charleston Southern University",
        "city": "Charleston",
        "state": "South Carolina",
        "zip": "29406"
    },
    {
        "name": "Chatham University",
        "city": "Pittsburgh",
        "state": "Pennsylvania",
        "zip": "15232"
    },
    {
        "name": "Chestnut Hill College",
        "city": "Philadelphia",
        "state": "Pennsylvania",
        "zip": "19118"
    },
    {
        "name": "Cheyney University of Pennsylvania",
        "city": "Cheyney",
        "state": "Pennsylvania",
        "zip": "19319"
    },
    {
        "name": "Chicago State University",
        "city": "Chicago",
        "state": "Illinois",
        "zip": "60628"
    },
    {
        "name": "Chowan University",
        "city": "Murfreesboro",
        "state": "North Carolina",
        "zip": "27855"
    },
    {
        "name": "Christian Brothers University",
        "city": "Memphis",
        "state": "Tennessee",
        "zip": "38104"
    },
    {
        "name": "Christopher Newport University",
        "city": "Newport News",
        "state": "Virginia",
        "zip": "23606"
    },
    {
        "name": "Citadel Military College of South Carolina",
        "city": "Charleston",
        "state": "South Carolina",
        "zip": "29409"
    },
    {
        "name": "Claflin University",
        "city": "Orangeburg",
        "state": "South Carolina",
        "zip": "29115"
    },
    {
        "name": "Claremont McKenna College",
        "city": "Claremont",
        "state": "California",
        "zip": "91711"
    },
    {
        "name": "Clarion University of Pennsylvania",
        "city": "Clarion",
        "state": "Pennsylvania",
        "zip": "16214"
    },
    {
        "name": "Clark Atlanta University",
        "city": "Atlanta",
        "state": "Georgia",
        "zip": "30314"
    },
    {
        "name": "Clark University",
        "city": "Worcester",
        "state": "Massachusetts",
        "zip": "01610"
    },
    {
        "name": "Clarke University",
        "city": "Dubuque",
        "state": "Iowa",
        "zip": "52001"
    },
    {
        "name": "Clarkson University",
        "city": "Potsdam",
        "state": "New York",
        "zip": "13699"
    },
    {
        "name": "Clayton  State University",
        "city": "Morrow",
        "state": "Georgia",
        "zip": "30260"
    },
    {
        "name": "Clemson University",
        "city": "Clemson",
        "state": "South Carolina",
        "zip": "29634"
    },
    {
        "name": "Cleveland State University",
        "city": "Cleveland",
        "state": "Ohio",
        "zip": "44115"
    },
    {
        "name": "Coastal Carolina University",
        "city": "Conway",
        "state": "South Carolina",
        "zip": "29526"
    },
    {
        "name": "Coe College",
        "city": "Cedar Rapids",
        "state": "Iowa",
        "zip": "52402"
    },
    {
        "name": "Coker College",
        "city": "Hartsville",
        "state": "South Carolina",
        "zip": "29550"
    },
    {
        "name": "Colby College",
        "city": "Waterville",
        "state": "Maine",
        "zip": "04901"
    },
    {
        "name": "Colby-Sawyer College",
        "city": "New London",
        "state": "New Hampshire",
        "zip": "03257"
    },
    {
        "name": "Colgate University",
        "city": "Hamilton",
        "state": "New York",
        "zip": "13346"
    },
    {
        "name": "College of Charleston",
        "city": "Charleston",
        "state": "South Carolina",
        "zip": "29424"
    },
    {
        "name": "College of Mount Saint Vincent",
        "city": "Bronx",
        "state": "New York",
        "zip": "10471"
    },
    {
        "name": "College of Our Lady of the Elms",
        "city": "Chicopee",
        "state": "Massachusetts",
        "zip": "01013"
    },
    {
        "name": "College of Saint Benedict",
        "city": "Saint Joseph",
        "state": "Minnesota",
        "zip": "56374"
    },
    {
        "name": "College of Saint Elizabeth",
        "city": "Morristown",
        "state": "New Jersey",
        "zip": "07960"
    },
    {
        "name": "College of Saint Mary",
        "city": "Omaha",
        "state": "Nebraska",
        "zip": "68106"
    },
    {
        "name": "College of St Joseph",
        "city": "Rutland",
        "state": "Vermont",
        "zip": "05701"
    },
    {
        "name": "College of Staten Island CUNY",
        "city": "Staten Island",
        "state": "New York",
        "zip": "10314"
    },
    {
        "name": "College of the Atlantic",
        "city": "Bar Harbor",
        "state": "Maine",
        "zip": "04609"
    },
    {
        "name": "College of the Holy Cross",
        "city": "Worcester",
        "state": "Massachusetts",
        "zip": "01610"
    },
    {
        "name": "College of the Ozarks",
        "city": "Point Lookout",
        "state": "Missouri",
        "zip": "65726"
    },
    {
        "name": "College of William and Mary",
        "city": "Williamsburg",
        "state": "Virginia",
        "zip": "23187"
    },
    {
        "name": "Colorado Christian University",
        "city": "Lakewood",
        "state": "Colorado",
        "zip": "80226"
    },
    {
        "name": "Colorado College",
        "city": "Colorado Springs",
        "state": "Colorado",
        "zip": "80903"
    },
    {
        "name": "Colorado Mesa University",
        "city": "Grand Junction",
        "state": "Colorado",
        "zip": "81501"
    },
    {
        "name": "Colorado School of Mines",
        "city": "Golden",
        "state": "Colorado",
        "zip": "80401"
    },
    {
        "name": "Colorado State University-Fort Collins",
        "city": "Fort Collins",
        "state": "Colorado",
        "zip": "80523"
    },
    {
        "name": "Colorado State University-Pueblo",
        "city": "Pueblo",
        "state": "Colorado",
        "zip": "81001"
    },
    {
        "name": "Columbia College",
        "city": "Columbia",
        "state": "Missouri",
        "zip": "65216"
    },
    {
        "name": "Columbia College",
        "city": "Columbia",
        "state": "South Carolina",
        "zip": "29203"
    },
    {
        "name": "Columbia College-Chicago",
        "city": "Chicago",
        "state": "Illinois",
        "zip": "60605"
    },
    {
        "name": "Columbia International University",
        "city": "Columbia",
        "state": "South Carolina",
        "zip": "29203"
    },
    {
        "name": "Columbia University in the City of New York",
        "city": "New York",
        "state": "New York",
        "zip": "10027"
    },
    {
        "name": "Columbus State University",
        "city": "Columbus",
        "state": "Georgia",
        "zip": "31907"
    },
    {
        "name": "Concord University",
        "city": "Athens",
        "state": "West Virginia",
        "zip": "24712"
    },
    {
        "name": "Concordia College at Moorhead",
        "city": "Moorhead",
        "state": "Minnesota",
        "zip": "56562"
    },
    {
        "name": "Concordia College-New York",
        "city": "Bronxville",
        "state": "New York",
        "zip": "10708"
    },
    {
        "name": "Concordia University-Ann Arbor",
        "city": "Ann Arbor",
        "state": "Michigan",
        "zip": "48105"
    },
    {
        "name": "Concordia University-Irvine",
        "city": "Irvine",
        "state": "California",
        "zip": "92612"
    },
    {
        "name": "Concordia University-Nebraska",
        "city": "Seward",
        "state": "Nebraska",
        "zip": "68434"
    },
    {
        "name": "Concordia University-Saint Paul",
        "city": "Saint Paul",
        "state": "Minnesota",
        "zip": "55104"
    },
    {
        "name": "Concordia University-Texas",
        "city": "Austin",
        "state": "Texas",
        "zip": "78726"
    },
    {
        "name": "Concordia University-Wisconsin",
        "city": "Mequon",
        "state": "Wisconsin",
        "zip": "53097"
    },
    {
        "name": "Connecticut College",
        "city": "New London",
        "state": "Connecticut",
        "zip": "06320"
    },
    {
        "name": "Converse College",
        "city": "Spartanburg",
        "state": "South Carolina",
        "zip": "29302"
    },
    {
        "name": "Cooper Union for the Advancement of Science and Art",
        "city": "New York",
        "state": "New York",
        "zip": "10003"
    },
    {
        "name": "Coppin State University",
        "city": "Baltimore",
        "state": "Maryland",
        "zip": "21216"
    },
    {
        "name": "Corban University",
        "city": "Salem",
        "state": "Oregon",
        "zip": "97317"
    },
    {
        "name": "Cornell College",
        "city": "Mount Vernon",
        "state": "Iowa",
        "zip": "52314"
    },
    {
        "name": "Cornell University",
        "city": "Ithaca",
        "state": "New York",
        "zip": "14853"
    },
    {
        "name": "Cornerstone University",
        "city": "Grand Rapids",
        "state": "Michigan",
        "zip": "49525"
    },
    {
        "name": "Covenant College",
        "city": "Lookout Mountain",
        "state": "Georgia",
        "zip": "30750"
    },
    {
        "name": "Creighton University",
        "city": "Omaha",
        "state": "Nebraska",
        "zip": "68178"
    },
    {
        "name": "Crown College",
        "city": "Saint Bonifacius",
        "state": "Minnesota",
        "zip": "55375"
    },
    {
        "name": "Culver-Stockton College",
        "city": "Canton",
        "state": "Missouri",
        "zip": "63435"
    },
    {
        "name": "Cumberland University",
        "city": "Lebanon",
        "state": "Tennessee",
        "zip": "37087"
    },
    {
        "name": "CUNY Bernard M Baruch College",
        "city": "New York",
        "state": "New York",
        "zip": "10010"
    },
    {
        "name": "CUNY Brooklyn College",
        "city": "Brooklyn",
        "state": "New York",
        "zip": "11210"
    },
    {
        "name": "CUNY City College",
        "city": "New York",
        "state": "New York",
        "zip": "10031"
    },
    {
        "name": "CUNY Hunter College",
        "city": "New York",
        "state": "New York",
        "zip": "10065"
    },
    {
        "name": "CUNY John Jay College of Criminal Justice",
        "city": "New York",
        "state": "New York",
        "zip": "10019"
    },
    {
        "name": "CUNY Lehman College",
        "city": "Bronx",
        "state": "New York",
        "zip": "10468"
    },
    {
        "name": "CUNY Medgar Evers College",
        "city": "Brooklyn",
        "state": "New York",
        "zip": "11225"
    },
    {
        "name": "CUNY New York City College of Technology",
        "city": "Brooklyn",
        "state": "New York",
        "zip": "11201"
    },
    {
        "name": "CUNY Queens College",
        "city": "Queens",
        "state": "New York",
        "zip": "11367"
    },
    {
        "name": "CUNY York College",
        "city": "Jamaica",
        "state": "New York",
        "zip": "11451"
    },
    {
        "name": "Curry College",
        "city": "Milton",
        "state": "Massachusetts",
        "zip": "02186"
    },
    {
        "name": "Daemen College",
        "city": "Amherst",
        "state": "New York",
        "zip": "14226"
    },
    {
        "name": "Dakota State University",
        "city": "Madison",
        "state": "South Dakota",
        "zip": "57042"
    },
    {
        "name": "Dakota Wesleyan University",
        "city": "Mitchell",
        "state": "South Dakota",
        "zip": "57301"
    },
    {
        "name": "Dallas Baptist University",
        "city": "Dallas",
        "state": "Texas",
        "zip": "75211"
    },
    {
        "name": "Dartmouth College",
        "city": "Hanover",
        "state": "New Hampshire",
        "zip": "03755"
    },
    {
        "name": "Davenport University",
        "city": "Grand Rapids",
        "state": "Michigan",
        "zip": "49512"
    },
    {
        "name": "Davidson College",
        "city": "Davidson",
        "state": "North Carolina",
        "zip": "28035"
    },
    {
        "name": "Davis & Elkins College",
        "city": "Elkins",
        "state": "West Virginia",
        "zip": "26241"
    },
    {
        "name": "Defiance College",
        "city": "Defiance",
        "state": "Ohio",
        "zip": "43512"
    },
    {
        "name": "Delaware State University",
        "city": "Dover",
        "state": "Delaware",
        "zip": "19901"
    },
    {
        "name": "Delaware Valley University",
        "city": "Doylestown",
        "state": "Pennsylvania",
        "zip": "18901"
    },
    {
        "name": "Delta State University",
        "city": "Cleveland",
        "state": "Mississippi",
        "zip": "38733"
    },
    {
        "name": "Denison University",
        "city": "Granville",
        "state": "Ohio",
        "zip": "43023"
    },
    {
        "name": "DePaul University",
        "city": "Chicago",
        "state": "Illinois",
        "zip": "60604"
    },
    {
        "name": "DePauw University",
        "city": "Greencastle",
        "state": "Indiana",
        "zip": "46135"
    },
    {
        "name": "DeSales University",
        "city": "Center Valley",
        "state": "Pennsylvania",
        "zip": "18034"
    },
    {
        "name": "Dickinson College",
        "city": "Carlisle",
        "state": "Pennsylvania",
        "zip": "17013"
    },
    {
        "name": "Dickinson State University",
        "city": "Dickinson",
        "state": "North Dakota",
        "zip": "58601"
    },
    {
        "name": "Dillard University",
        "city": "New Orleans",
        "state": "Louisiana",
        "zip": "70122"
    },
    {
        "name": "Doane University-Arts & Sciences",
        "city": "Crete",
        "state": "Nebraska",
        "zip": "68333"
    },
    {
        "name": "Doane University-Graduate and Professional Studies",
        "city": "Lincoln",
        "state": "Nebraska",
        "zip": "68504"
    },
    {
        "name": "Dominican College of Blauvelt",
        "city": "Orangeburg",
        "state": "New York",
        "zip": "10962"
    },
    {
        "name": "Dominican University",
        "city": "River Forest",
        "state": "Illinois",
        "zip": "60305"
    },
    {
        "name": "Dominican University of California",
        "city": "San Rafael",
        "state": "California",
        "zip": "94901"
    },
    {
        "name": "Dordt College",
        "city": "Sioux Center",
        "state": "Iowa",
        "zip": "51250"
    },
    {
        "name": "Dowling College",
        "city": "Oakdale",
        "state": "New York",
        "zip": "11769"
    },
    {
        "name": "Drake University",
        "city": "Des Moines",
        "state": "Iowa",
        "zip": "50311"
    },
    {
        "name": "Drew University",
        "city": "Madison",
        "state": "New Jersey",
        "zip": "07940"
    },
    {
        "name": "Drexel University",
        "city": "Philadelphia",
        "state": "Pennsylvania",
        "zip": "19104"
    },
    {
        "name": "Drury University",
        "city": "Springfield",
        "state": "Missouri",
        "zip": "65802"
    },
    {
        "name": "Duke University",
        "city": "Durham",
        "state": "North Carolina",
        "zip": "27708"
    },
    {
        "name": "Duquesne University",
        "city": "Pittsburgh",
        "state": "Pennsylvania",
        "zip": "15282"
    },
    {
        "name": "D'Youville College",
        "city": "Buffalo",
        "state": "New York",
        "zip": "14201"
    },
    {
        "name": "Earlham College",
        "city": "Richmond",
        "state": "Indiana",
        "zip": "47374"
    },
    {
        "name": "East Carolina University",
        "city": "Greenville",
        "state": "North Carolina",
        "zip": "27858"
    },
    {
        "name": "East Central University",
        "city": "Ada",
        "state": "Oklahoma",
        "zip": "74820"
    },
    {
        "name": "East Stroudsburg University of Pennsylvania",
        "city": "East Stroudsburg",
        "state": "Pennsylvania",
        "zip": "18301"
    },
    {
        "name": "East Tennessee State University",
        "city": "Johnson City",
        "state": "Tennessee",
        "zip": "37614"
    },
    {
        "name": "East Texas Baptist University",
        "city": "Marshall",
        "state": "Texas",
        "zip": "75670"
    },
    {
        "name": "Eastern Connecticut State University",
        "city": "Willimantic",
        "state": "Connecticut",
        "zip": "06226"
    },
    {
        "name": "Eastern Illinois University",
        "city": "Charleston",
        "state": "Illinois",
        "zip": "61920"
    },
    {
        "name": "Eastern Kentucky University",
        "city": "Richmond",
        "state": "Kentucky",
        "zip": "40475"
    },
    {
        "name": "Eastern Mennonite University",
        "city": "Harrisonburg",
        "state": "Virginia",
        "zip": "22802"
    },
    {
        "name": "Eastern Michigan University",
        "city": "Ypsilanti",
        "state": "Michigan",
        "zip": "48197"
    },
    {
        "name": "Eastern Nazarene College",
        "city": "Quincy",
        "state": "Massachusetts",
        "zip": "02170"
    },
    {
        "name": "Eastern New Mexico University",
        "city": "Portales",
        "state": "New Mexico",
        "zip": "88130"
    },
    {
        "name": "Eastern Oregon University",
        "city": "La Grande",
        "state": "Oregon",
        "zip": "97850"
    },
    {
        "name": "Eastern University",
        "city": "Saint Davids",
        "state": "Pennsylvania",
        "zip": "19087"
    },
    {
        "name": "Eastern Washington University",
        "city": "Cheney",
        "state": "Washington",
        "zip": "99004"
    },
    {
        "name": "East-West University",
        "city": "Chicago",
        "state": "Illinois",
        "zip": "60605"
    },
    {
        "name": "Eckerd College",
        "city": "Saint Petersburg",
        "state": "Florida",
        "zip": "33711"
    },
    {
        "name": "Edgewood College",
        "city": "Madison",
        "state": "Wisconsin",
        "zip": "53711"
    },
    {
        "name": "Edinboro University of Pennsylvania",
        "city": "Edinboro",
        "state": "Pennsylvania",
        "zip": "16444"
    },
    {
        "name": "Edward Waters College",
        "city": "Jacksonville",
        "state": "Florida",
        "zip": "32209"
    },
    {
        "name": "Elizabeth City State University",
        "city": "Elizabeth City",
        "state": "North Carolina",
        "zip": "27909"
    },
    {
        "name": "Elizabethtown College",
        "city": "Elizabethtown",
        "state": "Pennsylvania",
        "zip": "17022"
    },
    {
        "name": "Elmhurst College",
        "city": "Elmhurst",
        "state": "Illinois",
        "zip": "60126"
    },
    {
        "name": "Elmira College",
        "city": "Elmira",
        "state": "New York",
        "zip": "14901"
    },
    {
        "name": "Elon University",
        "city": "Elon",
        "state": "North Carolina",
        "zip": "27244"
    },
    {
        "name": "Embry-Riddle Aeronautical University-Daytona Beach",
        "city": "Daytona Beach",
        "state": "Florida",
        "zip": "32114"
    },
    {
        "name": "Embry-Riddle Aeronautical University-Prescott",
        "city": "Prescott",
        "state": "Arizona",
        "zip": "86301"
    },
    {
        "name": "Emerson College",
        "city": "Boston",
        "state": "Massachusetts",
        "zip": "02116"
    },
    {
        "name": "Emmanuel College",
        "city": "Franklin Springs",
        "state": "Georgia",
        "zip": "30639"
    },
    {
        "name": "Emmanuel College",
        "city": "Boston",
        "state": "Massachusetts",
        "zip": "02115"
    },
    {
        "name": "Emory & Henry College",
        "city": "Emory",
        "state": "Virginia",
        "zip": "24327"
    },
    {
        "name": "Emory University",
        "city": "Atlanta",
        "state": "Georgia",
        "zip": "30322"
    },
    {
        "name": "Emporia State University",
        "city": "Emporia",
        "state": "Kansas",
        "zip": "66801"
    },
    {
        "name": "Endicott College",
        "city": "Beverly",
        "state": "Massachusetts",
        "zip": "01915"
    },
    {
        "name": "Erskine College",
        "city": "Due West",
        "state": "South Carolina",
        "zip": "29639"
    },
    {
        "name": "Eureka College",
        "city": "Eureka",
        "state": "Illinois",
        "zip": "61530"
    },
    {
        "name": "Evangel University",
        "city": "Springfield",
        "state": "Missouri",
        "zip": "65802"
    },
    {
        "name": "Everglades University",
        "city": "Boca Raton",
        "state": "Florida",
        "zip": "33431"
    },
    {
        "name": "Fairfield University",
        "city": "Fairfield",
        "state": "Connecticut",
        "zip": "06824"
    },
    {
        "name": "Fairleigh Dickinson University-College at Florham",
        "city": "Madison",
        "state": "New Jersey",
        "zip": "07940"
    },
    {
        "name": "Fairleigh Dickinson University-Metropolitan Campus",
        "city": "Teaneck",
        "state": "New Jersey",
        "zip": "07666"
    },
    {
        "name": "Fairmont State University",
        "city": "Fairmont",
        "state": "West Virginia",
        "zip": "26554"
    },
    {
        "name": "Farmingdale State College",
        "city": "Farmingdale",
        "state": "New York",
        "zip": "11735"
    },
    {
        "name": "Faulkner University",
        "city": "Montgomery",
        "state": "Alabama",
        "zip": "36109"
    },
    {
        "name": "Fayetteville State University",
        "city": "Fayetteville",
        "state": "North Carolina",
        "zip": "28301"
    },
    {
        "name": "Felician University",
        "city": "Lodi",
        "state": "New Jersey",
        "zip": "07644"
    },
    {
        "name": "Ferris State University",
        "city": "Big Rapids",
        "state": "Michigan",
        "zip": "49307"
    },
    {
        "name": "Ferrum College",
        "city": "Ferrum",
        "state": "Virginia",
        "zip": "24088"
    },
    {
        "name": "Finlandia University",
        "city": "Hancock",
        "state": "Michigan",
        "zip": "49930"
    },
    {
        "name": "Fisher College",
        "city": "Boston",
        "state": "Massachusetts",
        "zip": "02116"
    },
    {
        "name": "Fisk University",
        "city": "Nashville",
        "state": "Tennessee",
        "zip": "37208"
    },
    {
        "name": "Fitchburg State University",
        "city": "Fitchburg",
        "state": "Massachusetts",
        "zip": "01420"
    },
    {
        "name": "Flagler College-St Augustine",
        "city": "Saint Augustine",
        "state": "Florida",
        "zip": "32084"
    },
    {
        "name": "Florida Agricultural and Mechanical University",
        "city": "Tallahassee",
        "state": "Florida",
        "zip": "32307"
    },
    {
        "name": "Florida Atlantic University",
        "city": "Boca Raton",
        "state": "Florida",
        "zip": "33431"
    },
    {
        "name": "Florida Gulf Coast University",
        "city": "Fort Myers",
        "state": "Florida",
        "zip": "33965"
    },
    {
        "name": "Florida Institute of Technology",
        "city": "Melbourne",
        "state": "Florida",
        "zip": "32901"
    },
    {
        "name": "Florida International University",
        "city": "Miami",
        "state": "Florida",
        "zip": "33199"
    },
    {
        "name": "Florida Memorial University",
        "city": "Miami Gardens",
        "state": "Florida",
        "zip": "33054"
    },
    {
        "name": "Florida Southern College",
        "city": "Lakeland",
        "state": "Florida",
        "zip": "33801"
    },
    {
        "name": "Florida State University",
        "city": "Tallahassee",
        "state": "Florida",
        "zip": "32306"
    },
    {
        "name": "Fontbonne University",
        "city": "Saint Louis",
        "state": "Missouri",
        "zip": "63105"
    },
    {
        "name": "Fordham University",
        "city": "Bronx",
        "state": "New York",
        "zip": "10458"
    },
    {
        "name": "Fort Hays State University",
        "city": "Hays",
        "state": "Kansas",
        "zip": "67601"
    },
    {
        "name": "Fort Lewis College",
        "city": "Durango",
        "state": "Colorado",
        "zip": "81301"
    },
    {
        "name": "Fort Valley State University",
        "city": "Fort Valley",
        "state": "Georgia",
        "zip": "31030"
    },
    {
        "name": "Framingham State University",
        "city": "Framingham",
        "state": "Massachusetts",
        "zip": "01701"
    },
    {
        "name": "Francis Marion University",
        "city": "Florence",
        "state": "South Carolina",
        "zip": "29506"
    },
    {
        "name": "Franciscan University of Steubenville",
        "city": "Steubenville",
        "state": "Ohio",
        "zip": "43952"
    },
    {
        "name": "Franklin and Marshall College",
        "city": "Lancaster",
        "state": "Pennsylvania",
        "zip": "17604"
    },
    {
        "name": "Franklin College",
        "city": "Franklin",
        "state": "Indiana",
        "zip": "46131"
    },
    {
        "name": "Franklin Pierce University",
        "city": "Rindge",
        "state": "New Hampshire",
        "zip": "03461"
    },
    {
        "name": "Freed-Hardeman University",
        "city": "Henderson",
        "state": "Tennessee",
        "zip": "38340"
    },
    {
        "name": "Fresno Pacific University",
        "city": "Fresno",
        "state": "California",
        "zip": "93702"
    },
    {
        "name": "Friends University",
        "city": "Wichita",
        "state": "Kansas",
        "zip": "67213"
    },
    {
        "name": "Frostburg State University",
        "city": "Frostburg",
        "state": "Maryland",
        "zip": "21532"
    },
    {
        "name": "Furman University",
        "city": "Greenville",
        "state": "South Carolina",
        "zip": "29613"
    },
    {
        "name": "Gallaudet University",
        "city": "Washington",
        "state": "District of Columbia",
        "zip": "20002"
    },
    {
        "name": "Gannon University",
        "city": "Erie",
        "state": "Pennsylvania",
        "zip": "16541"
    },
    {
        "name": "Gardner-Webb University",
        "city": "Boiling Springs",
        "state": "North Carolina",
        "zip": "28017"
    },
    {
        "name": "Geneva College",
        "city": "Beaver Falls",
        "state": "Pennsylvania",
        "zip": "15010"
    },
    {
        "name": "George Fox University",
        "city": "Newberg",
        "state": "Oregon",
        "zip": "97132"
    },
    {
        "name": "George Mason University",
        "city": "Fairfax",
        "state": "Virginia",
        "zip": "22030"
    },
    {
        "name": "George Washington University",
        "city": "Washington",
        "state": "District of Columbia",
        "zip": "20052"
    },
    {
        "name": "Georgetown College",
        "city": "Georgetown",
        "state": "Kentucky",
        "zip": "40324"
    },
    {
        "name": "Georgetown University",
        "city": "Washington",
        "state": "District of Columbia",
        "zip": "20057"
    },
    {
        "name": "Georgia Christian University",
        "city": "Atlanta",
        "state": "Georgia",
        "zip": "30360"
    },
    {
        "name": "Georgia College and State University",
        "city": "Milledgeville",
        "state": "Georgia",
        "zip": "31061"
    },
    {
        "name": "Georgia Gwinnett College",
        "city": "Lawrenceville",
        "state": "Georgia",
        "zip": "30043"
    },
    {
        "name": "Georgia Institute of Technology",
        "city": "Atlanta",
        "state": "Georgia",
        "zip": "30332"
    },
    {
        "name": "Georgia Southern University",
        "city": "Statesboro",
        "state": "Georgia",
        "zip": "30460"
    },
    {
        "name": "Georgia Southwestern State University",
        "city": "Americus",
        "state": "Georgia",
        "zip": "31709"
    },
    {
        "name": "Georgia State University",
        "city": "Atlanta",
        "state": "Georgia",
        "zip": "30303"
    },
    {
        "name": "Georgian Court University",
        "city": "Lakewood",
        "state": "New Jersey",
        "zip": "08701"
    },
    {
        "name": "Gettysburg College",
        "city": "Gettysburg",
        "state": "Pennsylvania",
        "zip": "17325"
    },
    {
        "name": "Glenville State College",
        "city": "Glenville",
        "state": "West Virginia",
        "zip": "26351"
    },
    {
        "name": "Goddard College",
        "city": "Plainfield",
        "state": "Vermont",
        "zip": "05667"
    },
    {
        "name": "Golden Gate University-San Francisco",
        "city": "San Francisco",
        "state": "California",
        "zip": "94105"
    },
    {
        "name": "Gonzaga University",
        "city": "Spokane",
        "state": "Washington",
        "zip": "99258"
    },
    {
        "name": "Gordon College",
        "city": "Wenham",
        "state": "Massachusetts",
        "zip": "01984"
    },
    {
        "name": "Goshen College",
        "city": "Goshen",
        "state": "Indiana",
        "zip": "46526"
    },
    {
        "name": "Goucher College",
        "city": "Baltimore",
        "state": "Maryland",
        "zip": "21204"
    },
    {
        "name": "Governors State University",
        "city": "University Park",
        "state": "Illinois",
        "zip": "60484"
    },
    {
        "name": "Grace Bible College",
        "city": "Wyoming",
        "state": "Michigan",
        "zip": "49509"
    },
    {
        "name": "Grace College and Theological Seminary",
        "city": "Winona Lake",
        "state": "Indiana",
        "zip": "46590"
    },
    {
        "name": "Grace University",
        "city": "Omaha",
        "state": "Nebraska",
        "zip": "68108"
    },
    {
        "name": "Graceland University-Lamoni",
        "city": "Lamoni",
        "state": "Iowa",
        "zip": "50140"
    },
    {
        "name": "Grambling State University",
        "city": "Grambling",
        "state": "Louisiana",
        "zip": "71245"
    },
    {
        "name": "Grand Valley State University",
        "city": "Allendale",
        "state": "Michigan",
        "zip": "49401"
    },
    {
        "name": "Grand View University",
        "city": "Des Moines",
        "state": "Iowa",
        "zip": "50316"
    },
    {
        "name": "Granite State College",
        "city": "Concord",
        "state": "New Hampshire",
        "zip": "03301"
    },
    {
        "name": "Green Mountain College",
        "city": "Poultney",
        "state": "Vermont",
        "zip": "05764"
    },
    {
        "name": "Greensboro College",
        "city": "Greensboro",
        "state": "North Carolina",
        "zip": "27401"
    },
    {
        "name": "Greenville College",
        "city": "Greenville",
        "state": "Illinois",
        "zip": "62246"
    },
    {
        "name": "Grinnell College",
        "city": "Grinnell",
        "state": "Iowa",
        "zip": "50112"
    },
    {
        "name": "Guilford College",
        "city": "Greensboro",
        "state": "North Carolina",
        "zip": "27410"
    },
    {
        "name": "Gustavus Adolphus College",
        "city": "Saint Peter",
        "state": "Minnesota",
        "zip": "56082"
    },
    {
        "name": "Gwynedd Mercy University",
        "city": "Gwynedd Valley",
        "state": "Pennsylvania",
        "zip": "19437"
    },
    {
        "name": "Hamilton College",
        "city": "Clinton",
        "state": "New York",
        "zip": "13323"
    },
    {
        "name": "Hamline University",
        "city": "Saint Paul",
        "state": "Minnesota",
        "zip": "55104"
    },
    {
        "name": "Hampden-Sydney College",
        "city": "Hampden-Sydney",
        "state": "Virginia",
        "zip": "23943"
    },
    {
        "name": "Hampshire College",
        "city": "Amherst",
        "state": "Massachusetts",
        "zip": "01002"
    },
    {
        "name": "Hampton University",
        "city": "Hampton",
        "state": "Virginia",
        "zip": "23668"
    },
    {
        "name": "Hannibal-LaGrange University",
        "city": "Hannibal",
        "state": "Missouri",
        "zip": "63401"
    },
    {
        "name": "Hanover College",
        "city": "Hanover",
        "state": "Indiana",
        "zip": "47243"
    },
    {
        "name": "Harding University",
        "city": "Searcy",
        "state": "Arkansas",
        "zip": "72143"
    },
    {
        "name": "Hardin-Simmons University",
        "city": "Abilene",
        "state": "Texas",
        "zip": "79698"
    },
    {
        "name": "Harrisburg University of Science and Technology",
        "city": "Harrisburg",
        "state": "Pennsylvania",
        "zip": "17101"
    },
    {
        "name": "Harris-Stowe State University",
        "city": "Saint Louis",
        "state": "Missouri",
        "zip": "63103"
    },
    {
        "name": "Hartwick College",
        "city": "Oneonta",
        "state": "New York",
        "zip": "13820"
    },
    {
        "name": "Harvard University",
        "city": "Cambridge",
        "state": "Massachusetts",
        "zip": "02138"
    },
    {
        "name": "Harvey Mudd College",
        "city": "Claremont",
        "state": "California",
        "zip": "91711"
    },
    {
        "name": "Hastings College",
        "city": "Hastings",
        "state": "Nebraska",
        "zip": "68901"
    },
    {
        "name": "Haverford College",
        "city": "Haverford",
        "state": "Pennsylvania",
        "zip": "19041"
    },
    {
        "name": "Hawaii Pacific University",
        "city": "Honolulu",
        "state": "Hawaii",
        "zip": "96813"
    },
    {
        "name": "Heidelberg University",
        "city": "Tiffin",
        "state": "Ohio",
        "zip": "44883"
    },
    {
        "name": "Henderson State University",
        "city": "Arkadelphia",
        "state": "Arkansas",
        "zip": "71999"
    },
    {
        "name": "Hendrix College",
        "city": "Conway",
        "state": "Arkansas",
        "zip": "72032"
    },
    {
        "name": "Heritage University",
        "city": "Toppenish",
        "state": "Washington",
        "zip": "98948"
    },
    {
        "name": "High Point University",
        "city": "High Point",
        "state": "North Carolina",
        "zip": "27268"
    },
    {
        "name": "Hilbert College",
        "city": "Hamburg",
        "state": "New York",
        "zip": "14075"
    },
    {
        "name": "Hiram College",
        "city": "Hiram",
        "state": "Ohio",
        "zip": "44234"
    },
    {
        "name": "Hobart William Smith Colleges",
        "city": "Geneva",
        "state": "New York",
        "zip": "14456"
    },
    {
        "name": "Hodges University",
        "city": "Naples",
        "state": "Florida",
        "zip": "34119"
    },
    {
        "name": "Hofstra University",
        "city": "Hempstead",
        "state": "New York",
        "zip": "11549"
    },
    {
        "name": "Hollins University",
        "city": "Roanoke",
        "state": "Virginia",
        "zip": "24020"
    },
    {
        "name": "Holy Cross College",
        "city": "Notre Dame",
        "state": "Indiana",
        "zip": "46556"
    },
    {
        "name": "Holy Family University",
        "city": "Philadelphia",
        "state": "Pennsylvania",
        "zip": "19114"
    },
    {
        "name": "Holy Names University",
        "city": "Oakland",
        "state": "California",
        "zip": "94619"
    },
    {
        "name": "Hood College",
        "city": "Frederick",
        "state": "Maryland",
        "zip": "21701"
    },
    {
        "name": "Hope College",
        "city": "Holland",
        "state": "Michigan",
        "zip": "49422"
    },
    {
        "name": "Hope International University",
        "city": "Fullerton",
        "state": "California",
        "zip": "92831"
    },
    {
        "name": "Houghton College",
        "city": "Houghton",
        "state": "New York",
        "zip": "14744"
    },
    {
        "name": "Houston Baptist University",
        "city": "Houston",
        "state": "Texas",
        "zip": "77074"
    },
    {
        "name": "Howard Payne University",
        "city": "Brownwood",
        "state": "Texas",
        "zip": "76801"
    },
    {
        "name": "Howard University",
        "city": "Washington",
        "state": "District of Columbia",
        "zip": "20059"
    },
    {
        "name": "Humboldt State University",
        "city": "Arcata",
        "state": "California",
        "zip": "95521"
    },
    {
        "name": "Humphreys College-Stockton and Modesto Campuses",
        "city": "Stockton",
        "state": "California",
        "zip": "95207"
    },
    {
        "name": "Huntingdon College",
        "city": "Montgomery",
        "state": "Alabama",
        "zip": "36106"
    },
    {
        "name": "Huntington University",
        "city": "Huntington",
        "state": "Indiana",
        "zip": "46750"
    },
    {
        "name": "Huston-Tillotson University",
        "city": "Austin",
        "state": "Texas",
        "zip": "78702"
    },
    {
        "name": "Idaho State University",
        "city": "Pocatello",
        "state": "Idaho",
        "zip": "83209"
    },
    {
        "name": "Illinois College",
        "city": "Jacksonville",
        "state": "Illinois",
        "zip": "62650"
    },
    {
        "name": "Illinois Institute of Technology",
        "city": "Chicago",
        "state": "Illinois",
        "zip": "60616"
    },
    {
        "name": "Illinois State University",
        "city": "Normal",
        "state": "Illinois",
        "zip": "61790"
    },
    {
        "name": "Illinois Wesleyan University",
        "city": "Bloomington",
        "state": "Illinois",
        "zip": "61702"
    },
    {
        "name": "Immaculata University",
        "city": "Immaculata",
        "state": "Pennsylvania",
        "zip": "19345"
    },
    {
        "name": "Indiana State University",
        "city": "Terre Haute",
        "state": "Indiana",
        "zip": "47809"
    },
    {
        "name": "Indiana University of Pennsylvania",
        "city": "Indiana",
        "state": "Pennsylvania",
        "zip": "15705"
    },
    {
        "name": "Indiana University-Bloomington",
        "city": "Bloomington",
        "state": "Indiana",
        "zip": "47405"
    },
    {
        "name": "Indiana University-East",
        "city": "Richmond",
        "state": "Indiana",
        "zip": "47374"
    },
    {
        "name": "Indiana University-Kokomo",
        "city": "Kokomo",
        "state": "Indiana",
        "zip": "46904"
    },
    {
        "name": "Indiana University-Northwest",
        "city": "Gary",
        "state": "Indiana",
        "zip": "46408"
    },
    {
        "name": "Indiana University-Purdue University-Fort Wayne",
        "city": "Fort Wayne",
        "state": "Indiana",
        "zip": "46805"
    },
    {
        "name": "Indiana University-Purdue University-Indianapolis",
        "city": "Indianapolis",
        "state": "Indiana",
        "zip": "46202"
    },
    {
        "name": "Indiana University-South Bend",
        "city": "South Bend",
        "state": "Indiana",
        "zip": "46634"
    },
    {
        "name": "Indiana University-Southeast",
        "city": "New Albany",
        "state": "Indiana",
        "zip": "47150"
    },
    {
        "name": "Indiana Wesleyan University-Marion",
        "city": "Marion",
        "state": "Indiana",
        "zip": "46953"
    },
    {
        "name": "Iona College",
        "city": "New Rochelle",
        "state": "New York",
        "zip": "10801"
    },
    {
        "name": "Iowa State University",
        "city": "Ames",
        "state": "Iowa",
        "zip": "50011"
    },
    {
        "name": "Iowa Wesleyan University",
        "city": "Mount Pleasant",
        "state": "Iowa",
        "zip": "52641"
    },
    {
        "name": "Ithaca College",
        "city": "Ithaca",
        "state": "New York",
        "zip": "14850"
    },
    {
        "name": "Jackson State University",
        "city": "Jackson",
        "state": "Mississippi",
        "zip": "39217"
    },
    {
        "name": "Jacksonville State University",
        "city": "Jacksonville",
        "state": "Alabama",
        "zip": "36265"
    },
    {
        "name": "Jacksonville University",
        "city": "Jacksonville",
        "state": "Florida",
        "zip": "32211"
    },
    {
        "name": "James Madison University",
        "city": "Harrisonburg",
        "state": "Virginia",
        "zip": "22807"
    },
    {
        "name": "Jarvis Christian College",
        "city": "Hawkins",
        "state": "Texas",
        "zip": "75765"
    },
    {
        "name": "John Brown University",
        "city": "Siloam Springs",
        "state": "Arkansas",
        "zip": "72761"
    },
    {
        "name": "John Carroll University",
        "city": "University Heights",
        "state": "Ohio",
        "zip": "44118"
    },
    {
        "name": "John Paul the Great Catholic University",
        "city": "Escondido",
        "state": "California",
        "zip": "92025"
    },
    {
        "name": "Johns Hopkins University",
        "city": "Baltimore",
        "state": "Maryland",
        "zip": "21218"
    },
    {
        "name": "Johnson & Wales University-Denver",
        "city": "Denver",
        "state": "Colorado",
        "zip": "80220"
    },
    {
        "name": "Johnson & Wales University-North Miami",
        "city": "North Miami",
        "state": "Florida",
        "zip": "33181"
    },
    {
        "name": "Johnson & Wales University-Providence",
        "city": "Providence",
        "state": "Rhode Island",
        "zip": "02903"
    },
    {
        "name": "Johnson C Smith University",
        "city": "Charlotte",
        "state": "North Carolina",
        "zip": "28216"
    },
    {
        "name": "Johnson State College",
        "city": "Johnson",
        "state": "Vermont",
        "zip": "05656"
    },
    {
        "name": "Judson College",
        "city": "Marion",
        "state": "Alabama",
        "zip": "36756"
    },
    {
        "name": "Judson University",
        "city": "Elgin",
        "state": "Illinois",
        "zip": "60123"
    },
    {
        "name": "Juniata College",
        "city": "Huntingdon",
        "state": "Pennsylvania",
        "zip": "16652"
    },
    {
        "name": "Kalamazoo College",
        "city": "Kalamazoo",
        "state": "Michigan",
        "zip": "49006"
    },
    {
        "name": "Kansas State University",
        "city": "Manhattan",
        "state": "Kansas",
        "zip": "66506"
    },
    {
        "name": "Kansas Wesleyan University",
        "city": "Salina",
        "state": "Kansas",
        "zip": "67401"
    },
    {
        "name": "Kean University",
        "city": "Union",
        "state": "New Jersey",
        "zip": "07083"
    },
    {
        "name": "Keene State College",
        "city": "Keene",
        "state": "New Hampshire",
        "zip": "03435"
    },
    {
        "name": "Kent State University at Kent",
        "city": "Kent",
        "state": "Ohio",
        "zip": "44242"
    },
    {
        "name": "Kentucky Christian University",
        "city": "Grayson",
        "state": "Kentucky",
        "zip": "41143"
    },
    {
        "name": "Kentucky State University",
        "city": "Frankfort",
        "state": "Kentucky",
        "zip": "40601"
    },
    {
        "name": "Kentucky Wesleyan College",
        "city": "Owensboro",
        "state": "Kentucky",
        "zip": "42301"
    },
    {
        "name": "Kenyon College",
        "city": "Gambier",
        "state": "Ohio",
        "zip": "43022"
    },
    {
        "name": "Kettering University",
        "city": "Flint",
        "state": "Michigan",
        "zip": "48504"
    },
    {
        "name": "Keuka College",
        "city": "Keuka Park",
        "state": "New York",
        "zip": "14478"
    },
    {
        "name": "Keystone College",
        "city": "La Plume",
        "state": "Pennsylvania",
        "zip": "18440"
    },
    {
        "name": "King University",
        "city": "Bristol",
        "state": "Tennessee",
        "zip": "37620"
    },
    {
        "name": "King's College",
        "city": "Wilkes-Barre",
        "state": "Pennsylvania",
        "zip": "18711"
    },
    {
        "name": "Knox College",
        "city": "Galesburg",
        "state": "Illinois",
        "zip": "61401"
    },
    {
        "name": "Kutztown University of Pennsylvania",
        "city": "Kutztown",
        "state": "Pennsylvania",
        "zip": "19530"
    },
    {
        "name": "Kuyper College",
        "city": "Grand Rapids",
        "state": "Michigan",
        "zip": "49525"
    },
    {
        "name": "La Roche College",
        "city": "Pittsburgh",
        "state": "Pennsylvania",
        "zip": "15237"
    },
    {
        "name": "La Salle University",
        "city": "Philadelphia",
        "state": "Pennsylvania",
        "zip": "19141"
    },
    {
        "name": "La Sierra University",
        "city": "Riverside",
        "state": "California",
        "zip": "92515"
    },
    {
        "name": "Lafayette College",
        "city": "Easton",
        "state": "Pennsylvania",
        "zip": "18042"
    },
    {
        "name": "LaGrange College",
        "city": "Lagrange",
        "state": "Georgia",
        "zip": "30240"
    },
    {
        "name": "Lake Erie College",
        "city": "Painesville",
        "state": "Ohio",
        "zip": "44077"
    },
    {
        "name": "Lake Forest College",
        "city": "Lake Forest",
        "state": "Illinois",
        "zip": "60045"
    },
    {
        "name": "Lake Superior State University",
        "city": "Sault Ste Marie",
        "state": "Michigan",
        "zip": "49783"
    },
    {
        "name": "Lakeland College",
        "city": "Plymouth",
        "state": "Wisconsin",
        "zip": "53073"
    },
    {
        "name": "Lamar University",
        "city": "Beaumont",
        "state": "Texas",
        "zip": "77705"
    },
    {
        "name": "Lander University",
        "city": "Greenwood",
        "state": "South Carolina",
        "zip": "29649"
    },
    {
        "name": "Lane College",
        "city": "Jackson",
        "state": "Tennessee",
        "zip": "38301"
    },
    {
        "name": "Langston University",
        "city": "Langston",
        "state": "Oklahoma",
        "zip": "73050"
    },
    {
        "name": "Lasell College",
        "city": "Newton",
        "state": "Massachusetts",
        "zip": "02466"
    },
    {
        "name": "Lawrence Technological University",
        "city": "Southfield",
        "state": "Michigan",
        "zip": "48075"
    },
    {
        "name": "Lawrence University",
        "city": "Appleton",
        "state": "Wisconsin",
        "zip": "54911"
    },
    {
        "name": "Le Moyne College",
        "city": "Syracuse",
        "state": "New York",
        "zip": "13214"
    },
    {
        "name": "Le Moyne-Owen College",
        "city": "Memphis",
        "state": "Tennessee",
        "zip": "38126"
    },
    {
        "name": "Lebanon Valley College",
        "city": "Annville",
        "state": "Pennsylvania",
        "zip": "17003"
    },
    {
        "name": "Lee University",
        "city": "Cleveland",
        "state": "Tennessee",
        "zip": "37311"
    },
    {
        "name": "Lees-McRae College",
        "city": "Banner Elk",
        "state": "North Carolina",
        "zip": "28604"
    },
    {
        "name": "Lehigh University",
        "city": "Bethlehem",
        "state": "Pennsylvania",
        "zip": "18015"
    },
    {
        "name": "Lenoir-Rhyne University",
        "city": "Hickory",
        "state": "North Carolina",
        "zip": "28601"
    },
    {
        "name": "Lesley University",
        "city": "Cambridge",
        "state": "Massachusetts",
        "zip": "02138"
    },
    {
        "name": "LeTourneau University",
        "city": "Longview",
        "state": "Texas",
        "zip": "75602"
    },
    {
        "name": "Lewis & Clark College",
        "city": "Portland",
        "state": "Oregon",
        "zip": "97219"
    },
    {
        "name": "Lewis University",
        "city": "Romeoville",
        "state": "Illinois",
        "zip": "60446"
    },
    {
        "name": "Lewis-Clark State College",
        "city": "Lewiston",
        "state": "Idaho",
        "zip": "83501"
    },
    {
        "name": "Liberty University",
        "city": "Lynchburg",
        "state": "Virginia",
        "zip": "24515"
    },
    {
        "name": "Limestone College",
        "city": "Gaffney",
        "state": "South Carolina",
        "zip": "29340"
    },
    {
        "name": "Lincoln Memorial University",
        "city": "Harrogate",
        "state": "Tennessee",
        "zip": "37752"
    },
    {
        "name": "Lincoln University",
        "city": "Jefferson City",
        "state": "Missouri",
        "zip": "65101"
    },
    {
        "name": "Lincoln University",
        "city": "Lincoln University",
        "state": "Pennsylvania",
        "zip": "19352"
    },
    {
        "name": "Lindenwood University",
        "city": "Saint Charles",
        "state": "Missouri",
        "zip": "63301"
    },
    {
        "name": "Lindsey Wilson College",
        "city": "Columbia",
        "state": "Kentucky",
        "zip": "42728"
    },
    {
        "name": "Linfield College-McMinnville Campus",
        "city": "McMinnville",
        "state": "Oregon",
        "zip": "97128"
    },
    {
        "name": "Lipscomb University",
        "city": "Nashville",
        "state": "Tennessee",
        "zip": "37204"
    },
    {
        "name": "LIU Brooklyn",
        "city": "Brooklyn",
        "state": "New York",
        "zip": "11201"
    },
    {
        "name": "LIU Post",
        "city": "Brookville",
        "state": "New York",
        "zip": "11548"
    },
    {
        "name": "Livingstone College",
        "city": "Salisbury",
        "state": "North Carolina",
        "zip": "28144"
    },
    {
        "name": "Lock Haven University",
        "city": "Lock Haven",
        "state": "Pennsylvania",
        "zip": "17745"
    },
    {
        "name": "Longwood University",
        "city": "Farmville",
        "state": "Virginia",
        "zip": "23909"
    },
    {
        "name": "Loras College",
        "city": "Dubuque",
        "state": "Iowa",
        "zip": "52004"
    },
    {
        "name": "Louisiana College",
        "city": "Pineville",
        "state": "Louisiana",
        "zip": "71359"
    },
    {
        "name": "Louisiana State University",
        "city": "Baton Rouge",
        "state": "Louisiana",
        "zip": "70803"
    },
    {
        "name": "Louisiana State University-Alexandria",
        "city": "Alexandria",
        "state": "Louisiana",
        "zip": "71302"
    },
    {
        "name": "Louisiana State University-Shreveport",
        "city": "Shreveport",
        "state": "Louisiana",
        "zip": "71115"
    },
    {
        "name": "Louisiana Tech University",
        "city": "Ruston",
        "state": "Louisiana",
        "zip": "71272"
    },
    {
        "name": "Lourdes University",
        "city": "Sylvania",
        "state": "Ohio",
        "zip": "43560"
    },
    {
        "name": "Loyola Marymount University",
        "city": "Los Angeles",
        "state": "California",
        "zip": "90045"
    },
    {
        "name": "Loyola University Chicago",
        "city": "Chicago",
        "state": "Illinois",
        "zip": "60660"
    },
    {
        "name": "Loyola University Maryland",
        "city": "Baltimore",
        "state": "Maryland",
        "zip": "21210"
    },
    {
        "name": "Loyola University New Orleans",
        "city": "New Orleans",
        "state": "Louisiana",
        "zip": "70118"
    },
    {
        "name": "Lubbock Christian University",
        "city": "Lubbock",
        "state": "Texas",
        "zip": "79407"
    },
    {
        "name": "Luther College",
        "city": "Decorah",
        "state": "Iowa",
        "zip": "52101"
    },
    {
        "name": "Lycoming College",
        "city": "Williamsport",
        "state": "Pennsylvania",
        "zip": "17701"
    },
    {
        "name": "Lynchburg College",
        "city": "Lynchburg",
        "state": "Virginia",
        "zip": "24501"
    },
    {
        "name": "Lyndon State College",
        "city": "Lyndonville",
        "state": "Vermont",
        "zip": "05851"
    },
    {
        "name": "Lynn University",
        "city": "Boca Raton",
        "state": "Florida",
        "zip": "33431"
    },
    {
        "name": "Lyon College",
        "city": "Batesville",
        "state": "Arkansas",
        "zip": "72501"
    },
    {
        "name": "Macalester College",
        "city": "Saint Paul",
        "state": "Minnesota",
        "zip": "55105"
    },
    {
        "name": "MacMurray College",
        "city": "Jacksonville",
        "state": "Illinois",
        "zip": "62650"
    },
    {
        "name": "Madonna University",
        "city": "Livonia",
        "state": "Michigan",
        "zip": "48150"
    },
    {
        "name": "Maharishi University of Management",
        "city": "Fairfield",
        "state": "Iowa",
        "zip": "52557"
    },
    {
        "name": "Maine Maritime Academy",
        "city": "Castine",
        "state": "Maine",
        "zip": "04420"
    },
    {
        "name": "Malone University",
        "city": "Canton",
        "state": "Ohio",
        "zip": "44709"
    },
    {
        "name": "Manchester University",
        "city": "North Manchester",
        "state": "Indiana",
        "zip": "46962"
    },
    {
        "name": "Manhattan College",
        "city": "Riverdale",
        "state": "New York",
        "zip": "10471"
    },
    {
        "name": "Manhattanville College",
        "city": "Purchase",
        "state": "New York",
        "zip": "10577"
    },
    {
        "name": "Mansfield University of Pennsylvania",
        "city": "Mansfield",
        "state": "Pennsylvania",
        "zip": "16933"
    },
    {
        "name": "Maranatha Baptist University",
        "city": "Watertown",
        "state": "Wisconsin",
        "zip": "53094"
    },
    {
        "name": "Marian University",
        "city": "Indianapolis",
        "state": "Indiana",
        "zip": "46222"
    },
    {
        "name": "Marian University",
        "city": "Fond Du Lac",
        "state": "Wisconsin",
        "zip": "54935"
    },
    {
        "name": "Marietta College",
        "city": "Marietta",
        "state": "Ohio",
        "zip": "45750"
    },
    {
        "name": "Marist College",
        "city": "Poughkeepsie",
        "state": "New York",
        "zip": "12601"
    },
    {
        "name": "Marlboro College",
        "city": "Marlboro",
        "state": "Vermont",
        "zip": "05344"
    },
    {
        "name": "Marquette University",
        "city": "Milwaukee",
        "state": "Wisconsin",
        "zip": "53233"
    },
    {
        "name": "Mars Hill University",
        "city": "Mars Hill",
        "state": "North Carolina",
        "zip": "28754"
    },
    {
        "name": "Marshall University",
        "city": "Huntington",
        "state": "West Virginia",
        "zip": "25755"
    },
    {
        "name": "Martin Methodist College",
        "city": "Pulaski",
        "state": "Tennessee",
        "zip": "38478"
    },
    {
        "name": "Martin University",
        "city": "Indianapolis",
        "state": "Indiana",
        "zip": "46218"
    },
    {
        "name": "Mary Baldwin College",
        "city": "Staunton",
        "state": "Virginia",
        "zip": "24401"
    },
    {
        "name": "Marygrove College",
        "city": "Detroit",
        "state": "Michigan",
        "zip": "48221"
    },
    {
        "name": "Marylhurst University",
        "city": "Marylhurst",
        "state": "Oregon",
        "zip": "97036"
    },
    {
        "name": "Marymount California University",
        "city": "Rancho Palos Verdes",
        "state": "California",
        "zip": "90275"
    },
    {
        "name": "Marymount Manhattan College",
        "city": "New York",
        "state": "New York",
        "zip": "10021"
    },
    {
        "name": "Marymount University",
        "city": "Arlington",
        "state": "Virginia",
        "zip": "22207"
    },
    {
        "name": "Maryville College",
        "city": "Maryville",
        "state": "Tennessee",
        "zip": "37804"
    },
    {
        "name": "Maryville University of Saint Louis",
        "city": "Saint Louis",
        "state": "Missouri",
        "zip": "63141"
    },
    {
        "name": "Marywood University",
        "city": "Scranton",
        "state": "Pennsylvania",
        "zip": "18509"
    },
    {
        "name": "Massachusetts College of Liberal Arts",
        "city": "North Adams",
        "state": "Massachusetts",
        "zip": "01247"
    },
    {
        "name": "Massachusetts Institute of Technology",
        "city": "Cambridge",
        "state": "Massachusetts",
        "zip": "02139"
    },
    {
        "name": "Massachusetts Maritime Academy",
        "city": "Buzzards Bay",
        "state": "Massachusetts",
        "zip": "02532"
    },
    {
        "name": "Mayville State University",
        "city": "Mayville",
        "state": "North Dakota",
        "zip": "58257"
    },
    {
        "name": "McDaniel College",
        "city": "Westminster",
        "state": "Maryland",
        "zip": "21157"
    },
    {
        "name": "McKendree University",
        "city": "Lebanon",
        "state": "Illinois",
        "zip": "62254"
    },
    {
        "name": "McMurry University",
        "city": "Abilene",
        "state": "Texas",
        "zip": "79697"
    },
    {
        "name": "McNeese State University",
        "city": "Lake Charles",
        "state": "Louisiana",
        "zip": "70605"
    },
    {
        "name": "McPherson College",
        "city": "McPherson",
        "state": "Kansas",
        "zip": "67460"
    },
    {
        "name": "Medaille College",
        "city": "Buffalo",
        "state": "New York",
        "zip": "14214"
    },
    {
        "name": "Mercer University",
        "city": "Macon",
        "state": "Georgia",
        "zip": "31207"
    },
    {
        "name": "Mercy College",
        "city": "Dobbs Ferry",
        "state": "New York",
        "zip": "10522"
    },
    {
        "name": "Mercyhurst University",
        "city": "Erie",
        "state": "Pennsylvania",
        "zip": "16546"
    },
    {
        "name": "Meredith College",
        "city": "Raleigh",
        "state": "North Carolina",
        "zip": "27607"
    },
    {
        "name": "Merrimack College",
        "city": "North Andover",
        "state": "Massachusetts",
        "zip": "01845"
    },
    {
        "name": "Messiah College",
        "city": "Mechanicsburg",
        "state": "Pennsylvania",
        "zip": "17055"
    },
    {
        "name": "Methodist University",
        "city": "Fayetteville",
        "state": "North Carolina",
        "zip": "28311"
    },
    {
        "name": "Metropolitan College of New York",
        "city": "New York",
        "state": "New York",
        "zip": "10013"
    },
    {
        "name": "Metropolitan State University",
        "city": "Saint Paul",
        "state": "Minnesota",
        "zip": "55106"
    },
    {
        "name": "Metropolitan State University of Denver",
        "city": "Denver",
        "state": "Colorado",
        "zip": "80217"
    },
    {
        "name": "Miami University-Hamilton",
        "city": "Hamilton",
        "state": "Ohio",
        "zip": "45011"
    },
    {
        "name": "Miami University-Middletown",
        "city": "Middletown",
        "state": "Ohio",
        "zip": "45042"
    },
    {
        "name": "Miami University-Oxford",
        "city": "Oxford",
        "state": "Ohio",
        "zip": "45056"
    },
    {
        "name": "Michigan State University",
        "city": "East Lansing",
        "state": "Michigan",
        "zip": "48824"
    },
    {
        "name": "Michigan Technological University",
        "city": "Houghton",
        "state": "Michigan",
        "zip": "49931"
    },
    {
        "name": "Mid-America Christian University",
        "city": "Oklahoma City",
        "state": "Oklahoma",
        "zip": "73170"
    },
    {
        "name": "MidAmerica Nazarene University",
        "city": "Olathe",
        "state": "Kansas",
        "zip": "66062"
    },
    {
        "name": "Middle Georgia State University",
        "city": "Macon",
        "state": "Georgia",
        "zip": "31206"
    },
    {
        "name": "Middle Tennessee State University",
        "city": "Murfreesboro",
        "state": "Tennessee",
        "zip": "37132"
    },
    {
        "name": "Middlebury College",
        "city": "Middlebury",
        "state": "Vermont",
        "zip": "05753"
    },
    {
        "name": "Midland University",
        "city": "Fremont",
        "state": "Nebraska",
        "zip": "68025"
    },
    {
        "name": "Midway University",
        "city": "Midway",
        "state": "Kentucky",
        "zip": "40347"
    },
    {
        "name": "Midwestern State University",
        "city": "Wichita Falls",
        "state": "Texas",
        "zip": "76308"
    },
    {
        "name": "Miles College",
        "city": "Fairfield",
        "state": "Alabama",
        "zip": "35064"
    },
    {
        "name": "Millersville University of Pennsylvania",
        "city": "Millersville",
        "state": "Pennsylvania",
        "zip": "17551"
    },
    {
        "name": "Millikin University",
        "city": "Decatur",
        "state": "Illinois",
        "zip": "62522"
    },
    {
        "name": "Mills College",
        "city": "Oakland",
        "state": "California",
        "zip": "94613"
    },
    {
        "name": "Millsaps College",
        "city": "Jackson",
        "state": "Mississippi",
        "zip": "39210"
    },
    {
        "name": "Milwaukee School of Engineering",
        "city": "Milwaukee",
        "state": "Wisconsin",
        "zip": "53202"
    },
    {
        "name": "Minnesota State University Moorhead",
        "city": "Moorhead",
        "state": "Minnesota",
        "zip": "56563"
    },
    {
        "name": "Minnesota State University-Mankato",
        "city": "Mankato",
        "state": "Minnesota",
        "zip": "56001"
    },
    {
        "name": "Minot State University",
        "city": "Minot",
        "state": "North Dakota",
        "zip": "58707"
    },
    {
        "name": "Misericordia University",
        "city": "Dallas",
        "state": "Pennsylvania",
        "zip": "18612"
    },
    {
        "name": "Mississippi College",
        "city": "Clinton",
        "state": "Mississippi",
        "zip": "39058"
    },
    {
        "name": "Mississippi State University",
        "city": "Mississippi State",
        "state": "Mississippi",
        "zip": "39762"
    },
    {
        "name": "Mississippi University for Women",
        "city": "Columbus",
        "state": "Mississippi",
        "zip": "39701"
    },
    {
        "name": "Mississippi Valley State University",
        "city": "Itta Bena",
        "state": "Mississippi",
        "zip": "38941"
    },
    {
        "name": "Missouri Baptist University",
        "city": "Saint Louis",
        "state": "Missouri",
        "zip": "63141"
    },
    {
        "name": "Missouri Southern State University",
        "city": "Joplin",
        "state": "Missouri",
        "zip": "64801"
    },
    {
        "name": "Missouri State University-Springfield",
        "city": "Springfield",
        "state": "Missouri",
        "zip": "65897"
    },
    {
        "name": "Missouri University of Science and Technology",
        "city": "Rolla",
        "state": "Missouri",
        "zip": "65409"
    },
    {
        "name": "Missouri Valley College",
        "city": "Marshall",
        "state": "Missouri",
        "zip": "65340"
    },
    {
        "name": "Missouri Western State University",
        "city": "Saint Joseph",
        "state": "Missouri",
        "zip": "64507"
    },
    {
        "name": "Mitchell College",
        "city": "New London",
        "state": "Connecticut",
        "zip": "06320"
    },
    {
        "name": "Molloy College",
        "city": "Rockville Centre",
        "state": "New York",
        "zip": "11571"
    },
    {
        "name": "Monmouth College",
        "city": "Monmouth",
        "state": "Illinois",
        "zip": "61462"
    },
    {
        "name": "Monmouth University",
        "city": "West Long Branch",
        "state": "New Jersey",
        "zip": "07764"
    },
    {
        "name": "Montana State University",
        "city": "Bozeman",
        "state": "Montana",
        "zip": "59717"
    },
    {
        "name": "Montana State University-Billings",
        "city": "Billings",
        "state": "Montana",
        "zip": "59101"
    },
    {
        "name": "Montana State University-Northern",
        "city": "Havre",
        "state": "Montana",
        "zip": "59501"
    },
    {
        "name": "Montana Tech of the University of Montana",
        "city": "Butte",
        "state": "Montana",
        "zip": "59701"
    },
    {
        "name": "Montclair State University",
        "city": "Montclair",
        "state": "New Jersey",
        "zip": "07043"
    },
    {
        "name": "Montreat College",
        "city": "Montreat",
        "state": "North Carolina",
        "zip": "28757"
    },
    {
        "name": "Moravian College",
        "city": "Bethlehem",
        "state": "Pennsylvania",
        "zip": "18018"
    },
    {
        "name": "Morehead State University",
        "city": "Morehead",
        "state": "Kentucky",
        "zip": "40351"
    },
    {
        "name": "Morehouse College",
        "city": "Atlanta",
        "state": "Georgia",
        "zip": "30314"
    },
    {
        "name": "Morgan State University",
        "city": "Baltimore",
        "state": "Maryland",
        "zip": "21251"
    },
    {
        "name": "Morningside College",
        "city": "Sioux City",
        "state": "Iowa",
        "zip": "51106"
    },
    {
        "name": "Morris College",
        "city": "Sumter",
        "state": "South Carolina",
        "zip": "29150"
    },
    {
        "name": "Mount Holyoke College",
        "city": "South Hadley",
        "state": "Massachusetts",
        "zip": "01075"
    },
    {
        "name": "Mount Ida College",
        "city": "Newton",
        "state": "Massachusetts",
        "zip": "02459"
    },
    {
        "name": "Mount Marty College",
        "city": "Yankton",
        "state": "South Dakota",
        "zip": "57078"
    },
    {
        "name": "Mount Mary University",
        "city": "Milwaukee",
        "state": "Wisconsin",
        "zip": "53222"
    },
    {
        "name": "Mount Mercy University",
        "city": "Cedar Rapids",
        "state": "Iowa",
        "zip": "52402"
    },
    {
        "name": "Mount Saint Joseph University",
        "city": "Cincinnati",
        "state": "Ohio",
        "zip": "45233"
    },
    {
        "name": "Mount Saint Mary College",
        "city": "Newburgh",
        "state": "New York",
        "zip": "12550"
    },
    {
        "name": "Mount Saint Mary's University",
        "city": "Los Angeles",
        "state": "California",
        "zip": "90049"
    },
    {
        "name": "Mount St Mary's University",
        "city": "Emmitsburg",
        "state": "Maryland",
        "zip": "21727"
    },
    {
        "name": "Mount Vernon Nazarene University",
        "city": "Mount Vernon",
        "state": "Ohio",
        "zip": "43050"
    },
    {
        "name": "Muhlenberg College",
        "city": "Allentown",
        "state": "Pennsylvania",
        "zip": "18104"
    },
    {
        "name": "Murray State University",
        "city": "Murray",
        "state": "Kentucky",
        "zip": "42071"
    },
    {
        "name": "Muskingum University",
        "city": "New Concord",
        "state": "Ohio",
        "zip": "43762"
    },
    {
        "name": "Naropa University",
        "city": "Boulder",
        "state": "Colorado",
        "zip": "80302"
    },
    {
        "name": "National Louis University",
        "city": "Chicago",
        "state": "Illinois",
        "zip": "60603"
    },
    {
        "name": "National University",
        "city": "La Jolla",
        "state": "California",
        "zip": "92037"
    },
    {
        "name": "Nazareth College",
        "city": "Rochester",
        "state": "New York",
        "zip": "14618"
    },
    {
        "name": "Nebraska Wesleyan University",
        "city": "Lincoln",
        "state": "Nebraska",
        "zip": "68504"
    },
    {
        "name": "Neumann University",
        "city": "Aston",
        "state": "Pennsylvania",
        "zip": "19014"
    },
    {
        "name": "Nevada State College",
        "city": "Henderson",
        "state": "Nevada",
        "zip": "89002"
    },
    {
        "name": "New College of Florida",
        "city": "Sarasota",
        "state": "Florida",
        "zip": "34243"
    },
    {
        "name": "New England College",
        "city": "Henniker",
        "state": "New Hampshire",
        "zip": "03242"
    },
    {
        "name": "New Jersey City University",
        "city": "Jersey City",
        "state": "New Jersey",
        "zip": "07305"
    },
    {
        "name": "New Jersey Institute of Technology",
        "city": "Newark",
        "state": "New Jersey",
        "zip": "07102"
    },
    {
        "name": "New Mexico Highlands University",
        "city": "Las Vegas",
        "state": "New Mexico",
        "zip": "87701"
    },
    {
        "name": "New Mexico Institute of Mining and Technology",
        "city": "Socorro",
        "state": "New Mexico",
        "zip": "87801"
    },
    {
        "name": "New Mexico State University",
        "city": "Las Cruces",
        "state": "New Mexico",
        "zip": "88003"
    },
    {
        "name": "New York Institute of Technology",
        "city": "Old Westbury",
        "state": "New York",
        "zip": "11568"
    },
    {
        "name": "New York University",
        "city": "New York",
        "state": "New York",
        "zip": "10012"
    },
    {
        "name": "Newberry College",
        "city": "Newberry",
        "state": "South Carolina",
        "zip": "29108"
    },
    {
        "name": "Newbury College",
        "city": "Brookline",
        "state": "Massachusetts",
        "zip": "02445"
    },
    {
        "name": "Newman University",
        "city": "Wichita",
        "state": "Kansas",
        "zip": "67213"
    },
    {
        "name": "Niagara University",
        "city": "Niagara University",
        "state": "New York",
        "zip": "14109"
    },
    {
        "name": "Nicholls State University",
        "city": "Thibodaux",
        "state": "Louisiana",
        "zip": "70310"
    },
    {
        "name": "Norfolk State University",
        "city": "Norfolk",
        "state": "Virginia",
        "zip": "23504"
    },
    {
        "name": "North American University",
        "city": "Houston",
        "state": "Texas",
        "zip": "77038"
    },
    {
        "name": "North Carolina A & T State University",
        "city": "Greensboro",
        "state": "North Carolina",
        "zip": "27411"
    },
    {
        "name": "North Carolina Central University",
        "city": "Durham",
        "state": "North Carolina",
        "zip": "27707"
    },
    {
        "name": "North Carolina State University at Raleigh",
        "city": "Raleigh",
        "state": "North Carolina",
        "zip": "27695"
    },
    {
        "name": "North Carolina Wesleyan College",
        "city": "Rocky Mount",
        "state": "North Carolina",
        "zip": "27804"
    },
    {
        "name": "North Central College",
        "city": "Naperville",
        "state": "Illinois",
        "zip": "60540"
    },
    {
        "name": "North Central University",
        "city": "Minneapolis",
        "state": "Minnesota",
        "zip": "55404"
    },
    {
        "name": "North Dakota State University",
        "city": "Fargo",
        "state": "North Dakota",
        "zip": "58108"
    },
    {
        "name": "North Greenville University",
        "city": "Tigerville",
        "state": "South Carolina",
        "zip": "29688"
    },
    {
        "name": "North Park University",
        "city": "Chicago",
        "state": "Illinois",
        "zip": "60625"
    },
    {
        "name": "Northeastern Illinois University",
        "city": "Chicago",
        "state": "Illinois",
        "zip": "60625"
    },
    {
        "name": "Northeastern State University",
        "city": "Tahlequah",
        "state": "Oklahoma",
        "zip": "74464"
    },
    {
        "name": "Northeastern University",
        "city": "Boston",
        "state": "Massachusetts",
        "zip": "02115"
    },
    {
        "name": "Northern Arizona University",
        "city": "Flagstaff",
        "state": "Arizona",
        "zip": "86011"
    },
    {
        "name": "Northern Illinois University",
        "city": "Dekalb",
        "state": "Illinois",
        "zip": "60115"
    },
    {
        "name": "Northern Kentucky University",
        "city": "Highland Heights",
        "state": "Kentucky",
        "zip": "41099"
    },
    {
        "name": "Northern Michigan University",
        "city": "Marquette",
        "state": "Michigan",
        "zip": "49855"
    },
    {
        "name": "Northern State University",
        "city": "Aberdeen",
        "state": "South Dakota",
        "zip": "57401"
    },
    {
        "name": "Northland College",
        "city": "Ashland",
        "state": "Wisconsin",
        "zip": "54806"
    },
    {
        "name": "Northwest Christian University",
        "city": "Eugene",
        "state": "Oregon",
        "zip": "97401"
    },
    {
        "name": "Northwest Missouri State University",
        "city": "Maryville",
        "state": "Missouri",
        "zip": "64468"
    },
    {
        "name": "Northwest Nazarene University",
        "city": "Nampa",
        "state": "Idaho",
        "zip": "83686"
    },
    {
        "name": "Northwest University",
        "city": "Kirkland",
        "state": "Washington",
        "zip": "98083"
    },
    {
        "name": "Northwestern College",
        "city": "Orange City",
        "state": "Iowa",
        "zip": "51041"
    },
    {
        "name": "Northwestern Oklahoma State University",
        "city": "Alva",
        "state": "Oklahoma",
        "zip": "73717"
    },
    {
        "name": "Northwestern State University of Louisiana",
        "city": "Natchitoches",
        "state": "Louisiana",
        "zip": "71497"
    },
    {
        "name": "Northwestern University",
        "city": "Evanston",
        "state": "Illinois",
        "zip": "60208"
    },
    {
        "name": "Norwich University",
        "city": "Northfield",
        "state": "Vermont",
        "zip": "05663"
    },
    {
        "name": "Notre Dame College",
        "city": "Cleveland",
        "state": "Ohio",
        "zip": "44121"
    },
    {
        "name": "Notre Dame de Namur University",
        "city": "Belmont",
        "state": "California",
        "zip": "94002"
    },
    {
        "name": "Notre Dame of Maryland University",
        "city": "Baltimore",
        "state": "Maryland",
        "zip": "21210"
    },
    {
        "name": "Nova Southeastern University",
        "city": "Fort Lauderdale",
        "state": "Florida",
        "zip": "33314"
    },
    {
        "name": "Nyack College",
        "city": "Nyack",
        "state": "New York",
        "zip": "10960"
    },
    {
        "name": "Oakland City University",
        "city": "Oakland City",
        "state": "Indiana",
        "zip": "47660"
    },
    {
        "name": "Oakland University",
        "city": "Rochester Hills",
        "state": "Michigan",
        "zip": "48309"
    },
    {
        "name": "Oakwood University",
        "city": "Huntsville",
        "state": "Alabama",
        "zip": "35896"
    },
    {
        "name": "Oberlin College",
        "city": "Oberlin",
        "state": "Ohio",
        "zip": "44074"
    },
    {
        "name": "Occidental College",
        "city": "Los Angeles",
        "state": "California",
        "zip": "90041"
    },
    {
        "name": "Oglethorpe University",
        "city": "Atlanta",
        "state": "Georgia",
        "zip": "30319"
    },
    {
        "name": "Ohio Christian University",
        "city": "Circleville",
        "state": "Ohio",
        "zip": "43113"
    },
    {
        "name": "Ohio Dominican University",
        "city": "Columbus",
        "state": "Ohio",
        "zip": "43219"
    },
    {
        "name": "Ohio Northern University",
        "city": "Ada",
        "state": "Ohio",
        "zip": "45810"
    },
    {
        "name": "Ohio State University",
        "city": "Columbus",
        "state": "Ohio",
        "zip": "43210"
    },
    {
        "name": "Ohio State University-Marion Campus",
        "city": "Marion",
        "state": "Ohio",
        "zip": "43302"
    },
    {
        "name": "Ohio University",
        "city": "Athens",
        "state": "Ohio",
        "zip": "45701"
    },
    {
        "name": "Ohio Valley University",
        "city": "Vienna",
        "state": "West Virginia",
        "zip": "26105"
    },
    {
        "name": "Ohio Wesleyan University",
        "city": "Delaware",
        "state": "Ohio",
        "zip": "43015"
    },
    {
        "name": "Oklahoma Baptist University",
        "city": "Shawnee",
        "state": "Oklahoma",
        "zip": "74804"
    },
    {
        "name": "Oklahoma Christian University",
        "city": "Edmond",
        "state": "Oklahoma",
        "zip": "73013"
    },
    {
        "name": "Oklahoma City University",
        "city": "Oklahoma City",
        "state": "Oklahoma",
        "zip": "73106"
    },
    {
        "name": "Oklahoma Panhandle State University",
        "city": "Goodwell",
        "state": "Oklahoma",
        "zip": "73939"
    },
    {
        "name": "Oklahoma State University",
        "city": "Stillwater",
        "state": "Oklahoma",
        "zip": "74078"
    },
    {
        "name": "Oklahoma Wesleyan University",
        "city": "Bartlesville",
        "state": "Oklahoma",
        "zip": "74006"
    },
    {
        "name": "Old Dominion University",
        "city": "Norfolk",
        "state": "Virginia",
        "zip": "23529"
    },
    {
        "name": "Olivet College",
        "city": "Olivet",
        "state": "Michigan",
        "zip": "49076"
    },
    {
        "name": "Olivet Nazarene University",
        "city": "Bourbonnais",
        "state": "Illinois",
        "zip": "60914"
    },
    {
        "name": "Oral Roberts University",
        "city": "Tulsa",
        "state": "Oklahoma",
        "zip": "74171"
    },
    {
        "name": "Oregon Institute of Technology",
        "city": "Klamath Falls",
        "state": "Oregon",
        "zip": "97601"
    },
    {
        "name": "Oregon State University",
        "city": "Corvallis",
        "state": "Oregon",
        "zip": "97331"
    },
    {
        "name": "Ottawa University-Ottawa",
        "city": "Ottawa",
        "state": "Kansas",
        "zip": "66067"
    },
    {
        "name": "Otterbein University",
        "city": "Westerville",
        "state": "Ohio",
        "zip": "43081"
    },
    {
        "name": "Ouachita Baptist University",
        "city": "Arkadelphia",
        "state": "Arkansas",
        "zip": "71998"
    },
    {
        "name": "Our Lady of the Lake University",
        "city": "San Antonio",
        "state": "Texas",
        "zip": "78207"
    },
    {
        "name": "Pace University-New York",
        "city": "New York",
        "state": "New York",
        "zip": "10038"
    },
    {
        "name": "Pacific Lutheran University",
        "city": "Tacoma",
        "state": "Washington",
        "zip": "98447"
    },
    {
        "name": "Pacific Rim Christian University",
        "city": "Honolulu",
        "state": "Hawaii",
        "zip": "96819"
    },
    {
        "name": "Pacific Union College",
        "city": "Angwin",
        "state": "California",
        "zip": "94508"
    },
    {
        "name": "Pacific University",
        "city": "Forest Grove",
        "state": "Oregon",
        "zip": "97116"
    },
    {
        "name": "Paine College",
        "city": "Augusta",
        "state": "Georgia",
        "zip": "30901"
    },
    {
        "name": "Palm Beach Atlantic University",
        "city": "West Palm Beach",
        "state": "Florida",
        "zip": "33401"
    },
    {
        "name": "Park University",
        "city": "Parkville",
        "state": "Missouri",
        "zip": "64152"
    },
    {
        "name": "Paul Quinn College",
        "city": "Dallas",
        "state": "Texas",
        "zip": "75241"
    },
    {
        "name": "Paul Smiths College of Arts and Science",
        "city": "Paul Smiths",
        "state": "New York",
        "zip": "12970"
    },
    {
        "name": "Peirce College",
        "city": "Philadelphia",
        "state": "Pennsylvania",
        "zip": "19102"
    },
    {
        "name": "Pennsylvania State University",
        "city": "University Park",
        "state": "Pennsylvania",
        "zip": "16802"
    },
    {
        "name": "Pennsylvania State University-Abington",
        "city": "Abington",
        "state": "Pennsylvania",
        "zip": "19001"
    },
    {
        "name": "Pennsylvania State University-Altoona",
        "city": "Altoona",
        "state": "Pennsylvania",
        "zip": "16601"
    },
    {
        "name": "Pennsylvania State University-Beaver",
        "city": "Monaca",
        "state": "Pennsylvania",
        "zip": "15061"
    },
    {
        "name": "Pennsylvania State University-Berks",
        "city": "Reading",
        "state": "Pennsylvania",
        "zip": "19610"
    },
    {
        "name": "Pennsylvania State University-Brandywine",
        "city": "Media",
        "state": "Pennsylvania",
        "zip": "19063"
    },
    {
        "name": "Pennsylvania State University-Behrend",
        "city": "Erie",
        "state": "Pennsylvania",
        "zip": "16563"
    },
    {
        "name": "Pennsylvania State University-Fayette",
        "city": "Lemont Furnace",
        "state": "Pennsylvania",
        "zip": "15456"
    },
    {
        "name": "Pennsylvania State University-Greater Allegheny",
        "city": "McKeesport",
        "state": "Pennsylvania",
        "zip": "15132"
    },
    {
        "name": "Pennsylvania State University-Harrisburg",
        "city": "Middletown",
        "state": "Pennsylvania",
        "zip": "17057"
    },
    {
        "name": "Pennsylvania State University-Lehigh Valley",
        "city": "Center Valley",
        "state": "Pennsylvania",
        "zip": "18034"
    },
    {
        "name": "Pennsylvania State University-New Kensington",
        "city": "New Kensington",
        "state": "Pennsylvania",
        "zip": "15068"
    },
    {
        "name": "Pennsylvania State University-Schuylkill",
        "city": "Schuylkill Haven",
        "state": "Pennsylvania",
        "zip": "17972"
    },
    {
        "name": "Pennsylvania State University-Wilkes-Barre",
        "city": "Lehman",
        "state": "Pennsylvania",
        "zip": "18627"
    },
    {
        "name": "Pennsylvania State University-Worthington Scranton",
        "city": "Dunmore",
        "state": "Pennsylvania",
        "zip": "18512"
    },
    {
        "name": "Pennsylvania State University-York",
        "city": "York",
        "state": "Pennsylvania",
        "zip": "17403"
    },
    {
        "name": "Pepperdine University",
        "city": "Malibu",
        "state": "California",
        "zip": "90263"
    },
    {
        "name": "Peru State College",
        "city": "Peru",
        "state": "Nebraska",
        "zip": "68421"
    },
    {
        "name": "Pfeiffer University",
        "city": "Misenheimer",
        "state": "North Carolina",
        "zip": "28109"
    },
    {
        "name": "Philadelphia University",
        "city": "Philadelphia",
        "state": "Pennsylvania",
        "zip": "19144"
    },
    {
        "name": "Philander Smith College",
        "city": "Little Rock",
        "state": "Arkansas",
        "zip": "72202"
    },
    {
        "name": "Piedmont College",
        "city": "Demorest",
        "state": "Georgia",
        "zip": "30535"
    },
    {
        "name": "Pine Manor College",
        "city": "Chestnut Hill",
        "state": "Massachusetts",
        "zip": "02467"
    },
    {
        "name": "Pittsburg State University",
        "city": "Pittsburg",
        "state": "Kansas",
        "zip": "66762"
    },
    {
        "name": "Pitzer College",
        "city": "Claremont",
        "state": "California",
        "zip": "91711"
    },
    {
        "name": "Plymouth State University",
        "city": "Plymouth",
        "state": "New Hampshire",
        "zip": "03264"
    },
    {
        "name": "Point Loma Nazarene University",
        "city": "San Diego",
        "state": "California",
        "zip": "92106"
    },
    {
        "name": "Point Park University",
        "city": "Pittsburgh",
        "state": "Pennsylvania",
        "zip": "15222"
    },
    {
        "name": "Point University",
        "city": "West Point",
        "state": "Georgia",
        "zip": "31833"
    },
    {
        "name": "Pomona College",
        "city": "Claremont",
        "state": "California",
        "zip": "91711"
    },
    {
        "name": "Portland State University",
        "city": "Portland",
        "state": "Oregon",
        "zip": "97201"
    },
    {
        "name": "Prairie View A & M University",
        "city": "Prairie View",
        "state": "Texas",
        "zip": "77446"
    },
    {
        "name": "Presbyterian College",
        "city": "Clinton",
        "state": "South Carolina",
        "zip": "29325"
    },
    {
        "name": "Prescott College",
        "city": "Prescott",
        "state": "Arizona",
        "zip": "86301"
    },
    {
        "name": "Princeton University",
        "city": "Princeton",
        "state": "New Jersey",
        "zip": "08544"
    },
    {
        "name": "Providence Christian College",
        "city": "Pasadena",
        "state": "California",
        "zip": "91104"
    },
    {
        "name": "Providence College",
        "city": "Providence",
        "state": "Rhode Island",
        "zip": "02918"
    },
    {
        "name": "Purdue University-Calumet Campus",
        "city": "Hammond",
        "state": "Indiana",
        "zip": "46323"
    },
    {
        "name": "Purdue University",
        "city": "West Lafayette",
        "state": "Indiana",
        "zip": "47907"
    },
    {
        "name": "Purdue University-North Central Campus",
        "city": "Westville",
        "state": "Indiana",
        "zip": "46391"
    },
    {
        "name": "Queens University of Charlotte",
        "city": "Charlotte",
        "state": "North Carolina",
        "zip": "28274"
    },
    {
        "name": "Quincy University",
        "city": "Quincy",
        "state": "Illinois",
        "zip": "62301"
    },
    {
        "name": "Quinnipiac University",
        "city": "Hamden",
        "state": "Connecticut",
        "zip": "06518"
    },
    {
        "name": "Radford University",
        "city": "Radford",
        "state": "Virginia",
        "zip": "24142"
    },
    {
        "name": "Ramapo College of New Jersey",
        "city": "Mahwah",
        "state": "New Jersey",
        "zip": "07430"
    },
    {
        "name": "Randolph College",
        "city": "Lynchburg",
        "state": "Virginia",
        "zip": "24503"
    },
    {
        "name": "Randolph-Macon College",
        "city": "Ashland",
        "state": "Virginia",
        "zip": "23005"
    },
    {
        "name": "Reed College",
        "city": "Portland",
        "state": "Oregon",
        "zip": "97202"
    },
    {
        "name": "Regent University",
        "city": "Virginia Beach",
        "state": "Virginia",
        "zip": "23464"
    },
    {
        "name": "Regis University",
        "city": "Denver",
        "state": "Colorado",
        "zip": "80221"
    },
    {
        "name": "Reinhardt University",
        "city": "Waleska",
        "state": "Georgia",
        "zip": "30183"
    },
    {
        "name": "Rensselaer Polytechnic Institute",
        "city": "Troy",
        "state": "New York",
        "zip": "12180"
    },
    {
        "name": "Rhode Island College",
        "city": "Providence",
        "state": "Rhode Island",
        "zip": "02908"
    },
    {
        "name": "Rhodes College",
        "city": "Memphis",
        "state": "Tennessee",
        "zip": "38112"
    },
    {
        "name": "Rice University",
        "city": "Houston",
        "state": "Texas",
        "zip": "77005"
    },
    {
        "name": "Rider University",
        "city": "Lawrenceville",
        "state": "New Jersey",
        "zip": "08648"
    },
    {
        "name": "Ripon College",
        "city": "Ripon",
        "state": "Wisconsin",
        "zip": "54971"
    },
    {
        "name": "Rivier University",
        "city": "Nashua",
        "state": "New Hampshire",
        "zip": "03060"
    },
    {
        "name": "Roanoke College",
        "city": "Salem",
        "state": "Virginia",
        "zip": "24153"
    },
    {
        "name": "Robert Morris University",
        "city": "Moon Township",
        "state": "Pennsylvania",
        "zip": "15108"
    },
    {
        "name": "Robert Morris University Illinois",
        "city": "Chicago",
        "state": "Illinois",
        "zip": "60605"
    },
    {
        "name": "Roberts Wesleyan College",
        "city": "Rochester",
        "state": "New York",
        "zip": "14624"
    },
    {
        "name": "Rochester College",
        "city": "Rochester Hills",
        "state": "Michigan",
        "zip": "48307"
    },
    {
        "name": "Rochester Institute of Technology",
        "city": "Rochester",
        "state": "New York",
        "zip": "14623"
    },
    {
        "name": "Rockford University",
        "city": "Rockford",
        "state": "Illinois",
        "zip": "61108"
    },
    {
        "name": "Rockhurst University",
        "city": "Kansas City",
        "state": "Missouri",
        "zip": "64110"
    },
    {
        "name": "Rocky Mountain College",
        "city": "Billings",
        "state": "Montana",
        "zip": "59102"
    },
    {
        "name": "Roger Williams University",
        "city": "Bristol",
        "state": "Rhode Island",
        "zip": "02809"
    },
    {
        "name": "Rogers State University",
        "city": "Claremore",
        "state": "Oklahoma",
        "zip": "74017"
    },
    {
        "name": "Rollins College",
        "city": "Winter Park",
        "state": "Florida",
        "zip": "32789"
    },
    {
        "name": "Roosevelt University",
        "city": "Chicago",
        "state": "Illinois",
        "zip": "60605"
    },
    {
        "name": "Rosemont College",
        "city": "Rosemont",
        "state": "Pennsylvania",
        "zip": "19010"
    },
    {
        "name": "Rowan University",
        "city": "Glassboro",
        "state": "New Jersey",
        "zip": "08028"
    },
    {
        "name": "Rust College",
        "city": "Holly Springs",
        "state": "Mississippi",
        "zip": "38635"
    },
    {
        "name": "Rutgers University-Camden",
        "city": "Camden",
        "state": "New Jersey",
        "zip": "08102"
    },
    {
        "name": "Rutgers University-New Brunswick",
        "city": "New Brunswick",
        "state": "New Jersey",
        "zip": "08901"
    },
    {
        "name": "Rutgers University-Newark",
        "city": "Newark",
        "state": "New Jersey",
        "zip": "07102"
    },
    {
        "name": "Sacred Heart University",
        "city": "Fairfield",
        "state": "Connecticut",
        "zip": "06825"
    },
    {
        "name": "Saginaw Valley State University",
        "city": "University Center",
        "state": "Michigan",
        "zip": "48710"
    },
    {
        "name": "Saint Ambrose University",
        "city": "Davenport",
        "state": "Iowa",
        "zip": "52803"
    },
    {
        "name": "Saint Anselm College",
        "city": "Manchester",
        "state": "New Hampshire",
        "zip": "03102"
    },
    {
        "name": "Saint Augustine's University",
        "city": "Raleigh",
        "state": "North Carolina",
        "zip": "27610"
    },
    {
        "name": "Saint Catharine College",
        "city": "Saint Catharine",
        "state": "Kentucky",
        "zip": "40061"
    },
    {
        "name": "Saint Cloud State University",
        "city": "Saint Cloud",
        "state": "Minnesota",
        "zip": "56301"
    },
    {
        "name": "Saint Edward's University",
        "city": "Austin",
        "state": "Texas",
        "zip": "78704"
    },
    {
        "name": "Saint Francis University",
        "city": "Loretto",
        "state": "Pennsylvania",
        "zip": "15940"
    },
    {
        "name": "Saint John Fisher College",
        "city": "Rochester",
        "state": "New York",
        "zip": "14618"
    },
    {
        "name": "Saint Johns University",
        "city": "Collegeville",
        "state": "Minnesota",
        "zip": "56321"
    },
    {
        "name": "Saint Josephs College",
        "city": "Rensselaer",
        "state": "Indiana",
        "zip": "47978"
    },
    {
        "name": "Saint Joseph's College of Maine",
        "city": "Standish",
        "state": "Maine",
        "zip": "04084"
    },
    {
        "name": "Saint Joseph's College-New York",
        "city": "Brooklyn",
        "state": "New York",
        "zip": "11205"
    },
    {
        "name": "Saint Joseph's University",
        "city": "Philadelphia",
        "state": "Pennsylvania",
        "zip": "19131"
    },
    {
        "name": "Saint Leo University",
        "city": "Saint Leo",
        "state": "Florida",
        "zip": "33574"
    },
    {
        "name": "Saint Louis University",
        "city": "Saint Louis",
        "state": "Missouri",
        "zip": "63103"
    },
    {
        "name": "Saint Martin's University",
        "city": "Lacey",
        "state": "Washington",
        "zip": "98503"
    },
    {
        "name": "Saint Mary-of-the-Woods College",
        "city": "Saint Mary of the Woods",
        "state": "Indiana",
        "zip": "47876"
    },
    {
        "name": "Saint Mary's College",
        "city": "Notre Dame",
        "state": "Indiana",
        "zip": "46556"
    },
    {
        "name": "Saint Mary's College of California",
        "city": "Moraga",
        "state": "California",
        "zip": "94575"
    },
    {
        "name": "Saint Mary's University of Minnesota",
        "city": "Winona",
        "state": "Minnesota",
        "zip": "55987"
    },
    {
        "name": "Saint Michael's College",
        "city": "Colchester",
        "state": "Vermont",
        "zip": "05439"
    },
    {
        "name": "Saint Norbert College",
        "city": "De Pere",
        "state": "Wisconsin",
        "zip": "54115"
    },
    {
        "name": "Saint Peter's University",
        "city": "Jersey City",
        "state": "New Jersey",
        "zip": "07306"
    },
    {
        "name": "Saint Vincent College",
        "city": "Latrobe",
        "state": "Pennsylvania",
        "zip": "15650"
    },
    {
        "name": "Saint Xavier University",
        "city": "Chicago",
        "state": "Illinois",
        "zip": "60655"
    },
    {
        "name": "Salem College",
        "city": "Winston-Salem",
        "state": "North Carolina",
        "zip": "27101"
    },
    {
        "name": "Salem State University",
        "city": "Salem",
        "state": "Massachusetts",
        "zip": "01970"
    },
    {
        "name": "Salisbury University",
        "city": "Salisbury",
        "state": "Maryland",
        "zip": "21801"
    },
    {
        "name": "Salve Regina University",
        "city": "Newport",
        "state": "Rhode Island",
        "zip": "02840"
    },
    {
        "name": "Sam Houston State University",
        "city": "Huntsville",
        "state": "Texas",
        "zip": "77340"
    },
    {
        "name": "Samford University",
        "city": "Birmingham",
        "state": "Alabama",
        "zip": "35229"
    },
    {
        "name": "San Diego Christian College",
        "city": "Santee",
        "state": "California",
        "zip": "92071"
    },
    {
        "name": "San Diego State University",
        "city": "San Diego",
        "state": "California",
        "zip": "92182"
    },
    {
        "name": "San Francisco State University",
        "city": "San Francisco",
        "state": "California",
        "zip": "94132"
    },
    {
        "name": "San Jose State University",
        "city": "San Jose",
        "state": "California",
        "zip": "95192"
    },
    {
        "name": "Santa Clara University",
        "city": "Santa Clara",
        "state": "California",
        "zip": "95053"
    },
    {
        "name": "Sarah Lawrence College",
        "city": "Bronxville",
        "state": "New York",
        "zip": "10708"
    },
    {
        "name": "Savannah State University",
        "city": "Savannah",
        "state": "Georgia",
        "zip": "31404"
    },
    {
        "name": "Schreiner University",
        "city": "Kerrville",
        "state": "Texas",
        "zip": "78028"
    },
    {
        "name": "Scripps College",
        "city": "Claremont",
        "state": "California",
        "zip": "91711"
    },
    {
        "name": "Seattle Pacific University",
        "city": "Seattle",
        "state": "Washington",
        "zip": "98119"
    },
    {
        "name": "Seattle University",
        "city": "Seattle",
        "state": "Washington",
        "zip": "98122"
    },
    {
        "name": "Seton Hall University",
        "city": "South Orange",
        "state": "New Jersey",
        "zip": "07079"
    },
    {
        "name": "Seton Hill University",
        "city": "Greensburg",
        "state": "Pennsylvania",
        "zip": "15601"
    },
    {
        "name": "Sewanee-The University of the South",
        "city": "Sewanee",
        "state": "Tennessee",
        "zip": "37383"
    },
    {
        "name": "Shaw University",
        "city": "Raleigh",
        "state": "North Carolina",
        "zip": "27601"
    },
    {
        "name": "Shawnee State University",
        "city": "Portsmouth",
        "state": "Ohio",
        "zip": "45662"
    },
    {
        "name": "Shenandoah University",
        "city": "Winchester",
        "state": "Virginia",
        "zip": "22601"
    },
    {
        "name": "Shepherd University",
        "city": "Shepherdstown",
        "state": "West Virginia",
        "zip": "25443"
    },
    {
        "name": "Shimer College",
        "city": "Chicago",
        "state": "Illinois",
        "zip": "60616"
    },
    {
        "name": "Shippensburg University of Pennsylvania",
        "city": "Shippensburg",
        "state": "Pennsylvania",
        "zip": "17257"
    },
    {
        "name": "Shorter University",
        "city": "Rome",
        "state": "Georgia",
        "zip": "30165"
    },
    {
        "name": "Siena College",
        "city": "Loudonville",
        "state": "New York",
        "zip": "12211"
    },
    {
        "name": "Siena Heights University",
        "city": "Adrian",
        "state": "Michigan",
        "zip": "49221"
    },
    {
        "name": "Sierra Nevada College",
        "city": "Incline Village",
        "state": "Nevada",
        "zip": "89451"
    },
    {
        "name": "Silver Lake College of the Holy Family",
        "city": "Manitowoc",
        "state": "Wisconsin",
        "zip": "54220"
    },
    {
        "name": "Simmons College",
        "city": "Boston",
        "state": "Massachusetts",
        "zip": "02115"
    },
    {
        "name": "Simpson College",
        "city": "Indianola",
        "state": "Iowa",
        "zip": "50125"
    },
    {
        "name": "Simpson University",
        "city": "Redding",
        "state": "California",
        "zip": "96003"
    },
    {
        "name": "Skidmore College",
        "city": "Saratoga Springs",
        "state": "New York",
        "zip": "12866"
    },
    {
        "name": "Slippery Rock University of Pennsylvania",
        "city": "Slippery Rock",
        "state": "Pennsylvania",
        "zip": "16057"
    },
    {
        "name": "Smith College",
        "city": "Northampton",
        "state": "Massachusetts",
        "zip": "01063"
    },
    {
        "name": "Soka University of America",
        "city": "Aliso Viejo",
        "state": "California",
        "zip": "92656"
    },
    {
        "name": "Sonoma State University",
        "city": "Rohnert Park",
        "state": "California",
        "zip": "94928"
    },
    {
        "name": "South Carolina State University",
        "city": "Orangeburg",
        "state": "South Carolina",
        "zip": "29117"
    },
    {
        "name": "South Dakota State University",
        "city": "Brookings",
        "state": "South Dakota",
        "zip": "57007"
    },
    {
        "name": "Southeast Missouri State University",
        "city": "Cape Girardeau",
        "state": "Missouri",
        "zip": "63701"
    },
    {
        "name": "Southeastern Baptist Theological Seminary",
        "city": "Wake Forest",
        "state": "North Carolina",
        "zip": "27587"
    },
    {
        "name": "Southeastern Louisiana University",
        "city": "Hammond",
        "state": "Louisiana",
        "zip": "70402"
    },
    {
        "name": "Southeastern Oklahoma State University",
        "city": "Durant",
        "state": "Oklahoma",
        "zip": "74701"
    },
    {
        "name": "Southeastern University",
        "city": "Lakeland",
        "state": "Florida",
        "zip": "33801"
    },
    {
        "name": "Southern Adventist University",
        "city": "Collegedale",
        "state": "Tennessee",
        "zip": "37315"
    },
    {
        "name": "Southern Arkansas University Main Campus",
        "city": "Magnolia",
        "state": "Arkansas",
        "zip": "71753"
    },
    {
        "name": "Southern Connecticut State University",
        "city": "New Haven",
        "state": "Connecticut",
        "zip": "06515"
    },
    {
        "name": "Southern Illinois University-Carbondale",
        "city": "Carbondale",
        "state": "Illinois",
        "zip": "62901"
    },
    {
        "name": "Southern Illinois University-Edwardsville",
        "city": "Edwardsville",
        "state": "Illinois",
        "zip": "62026"
    },
    {
        "name": "Southern Methodist University",
        "city": "Dallas",
        "state": "Texas",
        "zip": "75275"
    },
    {
        "name": "Southern Nazarene University",
        "city": "Bethany",
        "state": "Oklahoma",
        "zip": "73008"
    },
    {
        "name": "Southern New Hampshire University",
        "city": "Manchester",
        "state": "New Hampshire",
        "zip": "03106"
    },
    {
        "name": "Southern Oregon University",
        "city": "Ashland",
        "state": "Oregon",
        "zip": "97520"
    },
    {
        "name": "Southern University and A & M College",
        "city": "Baton Rouge",
        "state": "Louisiana",
        "zip": "70813"
    },
    {
        "name": "Southern University at New Orleans",
        "city": "New Orleans",
        "state": "Louisiana",
        "zip": "70126"
    },
    {
        "name": "Southern Utah University",
        "city": "Cedar City",
        "state": "Utah",
        "zip": "84720"
    },
    {
        "name": "Southern Vermont College",
        "city": "Bennington",
        "state": "Vermont",
        "zip": "05201"
    },
    {
        "name": "Southern Virginia University",
        "city": "Buena Vista",
        "state": "Virginia",
        "zip": "24416"
    },
    {
        "name": "Southern Wesleyan University",
        "city": "Central",
        "state": "South Carolina",
        "zip": "29630"
    },
    {
        "name": "Southwest Baptist University",
        "city": "Bolivar",
        "state": "Missouri",
        "zip": "65613"
    },
    {
        "name": "Southwest Minnesota State University",
        "city": "Marshall",
        "state": "Minnesota",
        "zip": "56258"
    },
    {
        "name": "Southwestern Adventist University",
        "city": "Keene",
        "state": "Texas",
        "zip": "76059"
    },
    {
        "name": "Southwestern Assemblies of God University",
        "city": "Waxahachie",
        "state": "Texas",
        "zip": "75165"
    },
    {
        "name": "Southwestern Christian University",
        "city": "Bethany",
        "state": "Oklahoma",
        "zip": "73008"
    },
    {
        "name": "Southwestern College",
        "city": "Winfield",
        "state": "Kansas",
        "zip": "67156"
    },
    {
        "name": "Southwestern Oklahoma State University",
        "city": "Weatherford",
        "state": "Oklahoma",
        "zip": "73096"
    },
    {
        "name": "Southwestern University",
        "city": "Georgetown",
        "state": "Texas",
        "zip": "78626"
    },
    {
        "name": "Spalding University",
        "city": "Louisville",
        "state": "Kentucky",
        "zip": "40203"
    },
    {
        "name": "Spelman College",
        "city": "Atlanta",
        "state": "Georgia",
        "zip": "30314"
    },
    {
        "name": "Spring Arbor University",
        "city": "Spring Arbor",
        "state": "Michigan",
        "zip": "49283"
    },
    {
        "name": "Spring Hill College",
        "city": "Mobile",
        "state": "Alabama",
        "zip": "36608"
    },
    {
        "name": "Springfield College",
        "city": "Springfield",
        "state": "Massachusetts",
        "zip": "01109"
    },
    {
        "name": "St Andrews University",
        "city": "Laurinburg",
        "state": "North Carolina",
        "zip": "28352"
    },
    {
        "name": "St Bonaventure University",
        "city": "Saint Bonaventure",
        "state": "New York",
        "zip": "14778"
    },
    {
        "name": "St Catherine University",
        "city": "Saint Paul",
        "state": "Minnesota",
        "zip": "55105"
    },
    {
        "name": "St Francis College",
        "city": "Brooklyn Heights",
        "state": "New York",
        "zip": "11201"
    },
    {
        "name": "St John's College",
        "city": "Annapolis",
        "state": "Maryland",
        "zip": "21401"
    },
    {
        "name": "St John's University-New York",
        "city": "Queens",
        "state": "New York",
        "zip": "11439"
    },
    {
        "name": "St Lawrence University",
        "city": "Canton",
        "state": "New York",
        "zip": "13617"
    },
    {
        "name": "St Mary's College of Maryland",
        "city": "St. Mary's City",
        "state": "Maryland",
        "zip": "20686"
    },
    {
        "name": "St Mary's University",
        "city": "San Antonio",
        "state": "Texas",
        "zip": "78228"
    },
    {
        "name": "St Olaf College",
        "city": "Northfield",
        "state": "Minnesota",
        "zip": "55057"
    },
    {
        "name": "St Thomas University",
        "city": "Miami Gardens",
        "state": "Florida",
        "zip": "33054"
    },
    {
        "name": "St. Gregory's University",
        "city": "Shawnee",
        "state": "Oklahoma",
        "zip": "74804"
    },
    {
        "name": "St. John's College",
        "city": "Santa Fe",
        "state": "New Mexico",
        "zip": "87505"
    },
    {
        "name": "St. Thomas Aquinas College",
        "city": "Sparkill",
        "state": "New York",
        "zip": "10976"
    },
    {
        "name": "Stanford University",
        "city": "Stanford",
        "state": "California",
        "zip": "94305"
    },
    {
        "name": "State University of New York at New Paltz",
        "city": "New Paltz",
        "state": "New York",
        "zip": "12561"
    },
    {
        "name": "Stephen F Austin State University",
        "city": "Nacogdoches",
        "state": "Texas",
        "zip": "75961"
    },
    {
        "name": "Stephens College",
        "city": "Columbia",
        "state": "Missouri",
        "zip": "65215"
    },
    {
        "name": "Sterling College",
        "city": "Sterling",
        "state": "Kansas",
        "zip": "67579"
    },
    {
        "name": "Sterling College",
        "city": "Craftsbury Common",
        "state": "Vermont",
        "zip": "05827"
    },
    {
        "name": "Stetson University",
        "city": "DeLand",
        "state": "Florida",
        "zip": "32723"
    },
    {
        "name": "Stevens Institute of Technology",
        "city": "Hoboken",
        "state": "New Jersey",
        "zip": "07030"
    },
    {
        "name": "Stevens-Henager College",
        "city": "Murray",
        "state": "Utah",
        "zip": "84123"
    },
    {
        "name": "Stevenson University",
        "city": "Stevenson",
        "state": "Maryland",
        "zip": "21153"
    },
    {
        "name": "Stillman College",
        "city": "Tuscaloosa",
        "state": "Alabama",
        "zip": "35401"
    },
    {
        "name": "Stockton University",
        "city": "Galloway",
        "state": "New Jersey",
        "zip": "08205"
    },
    {
        "name": "Stonehill College",
        "city": "Easton",
        "state": "Massachusetts",
        "zip": "02357"
    },
    {
        "name": "Stony Brook University",
        "city": "Stony Brook",
        "state": "New York",
        "zip": "11794"
    },
    {
        "name": "Suffolk University",
        "city": "Boston",
        "state": "Massachusetts",
        "zip": "02108"
    },
    {
        "name": "Sul Ross State University",
        "city": "Alpine",
        "state": "Texas",
        "zip": "79832"
    },
    {
        "name": "SUNY at Albany",
        "city": "Albany",
        "state": "New York",
        "zip": "12222"
    },
    {
        "name": "SUNY at Binghamton",
        "city": "Vestal",
        "state": "New York",
        "zip": "13850"
    },
    {
        "name": "SUNY at Fredonia",
        "city": "Fredonia",
        "state": "New York",
        "zip": "14063"
    },
    {
        "name": "SUNY at Purchase College",
        "city": "Purchase",
        "state": "New York",
        "zip": "10577"
    },
    {
        "name": "SUNY Buffalo State",
        "city": "Buffalo",
        "state": "New York",
        "zip": "14222"
    },
    {
        "name": "SUNY College at Brockport",
        "city": "Brockport",
        "state": "New York",
        "zip": "14420"
    },
    {
        "name": "SUNY College at Cortland",
        "city": "Cortland",
        "state": "New York",
        "zip": "13045"
    },
    {
        "name": "SUNY College at Geneseo",
        "city": "Geneseo",
        "state": "New York",
        "zip": "14454"
    },
    {
        "name": "SUNY College at Old Westbury",
        "city": "Old Westbury",
        "state": "New York",
        "zip": "11568"
    },
    {
        "name": "SUNY College at Oswego",
        "city": "Oswego",
        "state": "New York",
        "zip": "13126"
    },
    {
        "name": "SUNY College at Plattsburgh",
        "city": "Plattsburgh",
        "state": "New York",
        "zip": "12901"
    },
    {
        "name": "SUNY College at Potsdam",
        "city": "Potsdam",
        "state": "New York",
        "zip": "13676"
    },
    {
        "name": "SUNY College at Cobleskill",
        "city": "Cobleskill",
        "state": "New York",
        "zip": "12043"
    },
    {
        "name": "SUNY College of Environmental Science and Forestry",
        "city": "Syracuse",
        "state": "New York",
        "zip": "13210"
    },
    {
        "name": "SUNY Empire State College",
        "city": "Saratoga Springs",
        "state": "New York",
        "zip": "12866"
    },
    {
        "name": "SUNY Maritime College",
        "city": "Throggs Neck",
        "state": "New York",
        "zip": "10465"
    },
    {
        "name": "SUNY Oneonta",
        "city": "Oneonta",
        "state": "New York",
        "zip": "13820"
    },
    {
        "name": "SUNY Polytechnic Institute",
        "city": "Utica",
        "state": "New York",
        "zip": "13502"
    },
    {
        "name": "Susquehanna University",
        "city": "Selinsgrove",
        "state": "Pennsylvania",
        "zip": "17870"
    },
    {
        "name": "Swarthmore College",
        "city": "Swarthmore",
        "state": "Pennsylvania",
        "zip": "19081"
    },
    {
        "name": "Sweet Briar College",
        "city": "Sweet Briar",
        "state": "Virginia",
        "zip": "24595"
    },
    {
        "name": "Syracuse University",
        "city": "Syracuse",
        "state": "New York",
        "zip": "13244"
    },
    {
        "name": "Tabor College",
        "city": "Hillsboro",
        "state": "Kansas",
        "zip": "67063"
    },
    {
        "name": "Talladega College",
        "city": "Talladega",
        "state": "Alabama",
        "zip": "35160"
    },
    {
        "name": "Tarleton State University",
        "city": "Stephenville",
        "state": "Texas",
        "zip": "76401"
    },
    {
        "name": "Taylor University",
        "city": "Upland",
        "state": "Indiana",
        "zip": "46989"
    },
    {
        "name": "Temple University",
        "city": "Philadelphia",
        "state": "Pennsylvania",
        "zip": "19122"
    },
    {
        "name": "Tennessee State University",
        "city": "Nashville",
        "state": "Tennessee",
        "zip": "37209"
    },
    {
        "name": "Tennessee Technological University",
        "city": "Cookeville",
        "state": "Tennessee",
        "zip": "38505"
    },
    {
        "name": "Tennessee Wesleyan College",
        "city": "Athens",
        "state": "Tennessee",
        "zip": "37303"
    },
    {
        "name": "Texas A & M International University",
        "city": "Laredo",
        "state": "Texas",
        "zip": "78041"
    },
    {
        "name": "Texas A & M University-College Station",
        "city": "College Station",
        "state": "Texas",
        "zip": "77843"
    },
    {
        "name": "Texas A & M University-Commerce",
        "city": "Commerce",
        "state": "Texas",
        "zip": "75429"
    },
    {
        "name": "Texas A & M University-Corpus Christi",
        "city": "Corpus Christi",
        "state": "Texas",
        "zip": "78412"
    },
    {
        "name": "Texas A & M University-Kingsville",
        "city": "Kingsville",
        "state": "Texas",
        "zip": "78363"
    },
    {
        "name": "Texas A & M University-Texarkana",
        "city": "Texarkana",
        "state": "Texas",
        "zip": "75503"
    },
    {
        "name": "Texas Christian University",
        "city": "Fort Worth",
        "state": "Texas",
        "zip": "76129"
    },
    {
        "name": "Texas College",
        "city": "Tyler",
        "state": "Texas",
        "zip": "75702"
    },
    {
        "name": "Texas Lutheran University",
        "city": "Seguin",
        "state": "Texas",
        "zip": "78155"
    },
    {
        "name": "Texas Southern University",
        "city": "Houston",
        "state": "Texas",
        "zip": "77004"
    },
    {
        "name": "Texas State University",
        "city": "San Marcos",
        "state": "Texas",
        "zip": "78666"
    },
    {
        "name": "Texas Tech University",
        "city": "Lubbock",
        "state": "Texas",
        "zip": "79409"
    },
    {
        "name": "Texas Wesleyan University",
        "city": "Fort Worth",
        "state": "Texas",
        "zip": "76105"
    },
    {
        "name": "Texas Woman's University",
        "city": "Denton",
        "state": "Texas",
        "zip": "76201"
    },
    {
        "name": "The California Maritime Academy",
        "city": "Vallejo",
        "state": "California",
        "zip": "94590"
    },
    {
        "name": "The College of Idaho",
        "city": "Caldwell",
        "state": "Idaho",
        "zip": "83605"
    },
    {
        "name": "The College of New Jersey",
        "city": "Ewing",
        "state": "New Jersey",
        "zip": "08628"
    },
    {
        "name": "The College of New Rochelle",
        "city": "New Rochelle",
        "state": "New York",
        "zip": "10805"
    },
    {
        "name": "The College of Saint Rose",
        "city": "Albany",
        "state": "New York",
        "zip": "12203"
    },
    {
        "name": "The College of Saint Scholastica",
        "city": "Duluth",
        "state": "Minnesota",
        "zip": "55811"
    },
    {
        "name": "The College of Wooster",
        "city": "Wooster",
        "state": "Ohio",
        "zip": "44691"
    },
    {
        "name": "The Evergreen State College",
        "city": "Olympia",
        "state": "Washington",
        "zip": "98505"
    },
    {
        "name": "The King's College",
        "city": "New York",
        "state": "New York",
        "zip": "10004"
    },
    {
        "name": "The Master's College and Seminary",
        "city": "Santa Clarita",
        "state": "California",
        "zip": "91321"
    },
    {
        "name": "The New School",
        "city": "New York",
        "state": "New York",
        "zip": "10011"
    },
    {
        "name": "The Sage Colleges",
        "city": "Troy",
        "state": "New York",
        "zip": "12180"
    },
    {
        "name": "University of Alabama",
        "city": "Tuscaloosa",
        "state": "Alabama",
        "zip": "35487"
    },
    {
        "name": "University of Findlay",
        "city": "Findlay",
        "state": "Ohio",
        "zip": "45840"
    },
    {
        "name": "University of Montana",
        "city": "Missoula",
        "state": "Montana",
        "zip": "59812"
    },
    {
        "name": "University of Montana-Western",
        "city": "Dillon",
        "state": "Montana",
        "zip": "59725"
    },
    {
        "name": "University of Tampa",
        "city": "Tampa",
        "state": "Florida",
        "zip": "33606"
    },
    {
        "name": "University of Tennessee-Chattanooga",
        "city": "Chattanooga",
        "state": "Tennessee",
        "zip": "37403"
    },
    {
        "name": "University of Tennessee-Knoxville",
        "city": "Knoxville",
        "state": "Tennessee",
        "zip": "37996"
    },
    {
        "name": "University of Tennessee-Martin",
        "city": "Martin",
        "state": "Tennessee",
        "zip": "38238"
    },
    {
        "name": "University of Texas at Arlington",
        "city": "Arlington",
        "state": "Texas",
        "zip": "76013"
    },
    {
        "name": "University of Texas at Austin",
        "city": "Austin",
        "state": "Texas",
        "zip": "78712"
    },
    {
        "name": "University of Texas at Dallas",
        "city": "Richardson",
        "state": "Texas",
        "zip": "75080"
    },
    {
        "name": "University of Texas at El Paso",
        "city": "El Paso",
        "state": "Texas",
        "zip": "79968"
    },
    {
        "name": "University of Texas at San Antonio",
        "city": "San Antonio",
        "state": "Texas",
        "zip": "78249"
    },
    {
        "name": "University of Texas at Tyler",
        "city": "Tyler",
        "state": "Texas",
        "zip": "75799"
    },
    {
        "name": "University of Texas of the Permian Basin",
        "city": "Odessa",
        "state": "Texas",
        "zip": "79762"
    },
    {
        "name": "University of Texas Rio Grande Valley",
        "city": "Edinburg",
        "state": "Texas",
        "zip": "78539"
    },
    {
        "name": "University of Virginia's College at Wise",
        "city": "Wise",
        "state": "Virginia",
        "zip": "24293"
    },
    {
        "name": "University of West Florida",
        "city": "Pensacola",
        "state": "Florida",
        "zip": "32514"
    },
    {
        "name": "Thiel College",
        "city": "Greenville",
        "state": "Pennsylvania",
        "zip": "16125"
    },
    {
        "name": "Thomas Aquinas College",
        "city": "Santa Paula",
        "state": "California",
        "zip": "93060"
    },
    {
        "name": "Thomas College",
        "city": "Waterville",
        "state": "Maine",
        "zip": "04901"
    },
    {
        "name": "Thomas Edison State University",
        "city": "Trenton",
        "state": "New Jersey",
        "zip": "08608"
    },
    {
        "name": "Thomas More College",
        "city": "Crestview Hills",
        "state": "Kentucky",
        "zip": "41017"
    },
    {
        "name": "Thomas More College of Liberal Arts",
        "city": "Merrimack",
        "state": "New Hampshire",
        "zip": "03054"
    },
    {
        "name": "Thomas University",
        "city": "Thomasville",
        "state": "Georgia",
        "zip": "31792"
    },
    {
        "name": "Tiffin University",
        "city": "Tiffin",
        "state": "Ohio",
        "zip": "44883"
    },
    {
        "name": "Toccoa Falls College",
        "city": "Toccoa Falls",
        "state": "Georgia",
        "zip": "30598"
    },
    {
        "name": "Tougaloo College",
        "city": "Tougaloo",
        "state": "Mississippi",
        "zip": "39174"
    },
    {
        "name": "Touro College",
        "city": "New York",
        "state": "New York",
        "zip": "10018"
    },
    {
        "name": "Touro University Worldwide",
        "city": "Los Alamitos",
        "state": "California",
        "zip": "90720"
    },
    {
        "name": "Towson University",
        "city": "Towson",
        "state": "Maryland",
        "zip": "21252"
    },
    {
        "name": "Transylvania University",
        "city": "Lexington",
        "state": "Kentucky",
        "zip": "40508"
    },
    {
        "name": "Trevecca Nazarene University",
        "city": "Nashville",
        "state": "Tennessee",
        "zip": "37210"
    },
    {
        "name": "Trine University",
        "city": "Angola",
        "state": "Indiana",
        "zip": "46703"
    },
    {
        "name": "Trine University-Regional/Non-Traditional Campuses",
        "city": "Fort Wayne",
        "state": "Indiana",
        "zip": "46825"
    },
    {
        "name": "Trinity Christian College",
        "city": "Palos Heights",
        "state": "Illinois",
        "zip": "60463"
    },
    {
        "name": "Trinity College",
        "city": "Hartford",
        "state": "Connecticut",
        "zip": "06106"
    },
    {
        "name": "Trinity International University-Florida",
        "city": "Davie",
        "state": "Florida",
        "zip": "33324"
    },
    {
        "name": "Trinity International University-Illinois",
        "city": "Deerfield",
        "state": "Illinois",
        "zip": "60015"
    },
    {
        "name": "Trinity Lutheran College",
        "city": "Everett",
        "state": "Washington",
        "zip": "98201"
    },
    {
        "name": "Trinity University",
        "city": "San Antonio",
        "state": "Texas",
        "zip": "78212"
    },
    {
        "name": "Trinity Washington University",
        "city": "Washington",
        "state": "District of Columbia",
        "zip": "20017"
    },
    {
        "name": "Troy University",
        "city": "Troy",
        "state": "Alabama",
        "zip": "36082"
    },
    {
        "name": "Truett-McConnell College",
        "city": "Cleveland",
        "state": "Georgia",
        "zip": "30528"
    },
    {
        "name": "Truman State University",
        "city": "Kirksville",
        "state": "Missouri",
        "zip": "63501"
    },
    {
        "name": "Tufts University",
        "city": "Medford",
        "state": "Massachusetts",
        "zip": "02155"
    },
    {
        "name": "Tulane University of Louisiana",
        "city": "New Orleans",
        "state": "Louisiana",
        "zip": "70118"
    },
    {
        "name": "Tusculum College",
        "city": "Greeneville",
        "state": "Tennessee",
        "zip": "37743"
    },
    {
        "name": "Tuskegee University",
        "city": "Tuskegee",
        "state": "Alabama",
        "zip": "36088"
    },
    {
        "name": "Union College",
        "city": "Barbourville",
        "state": "Kentucky",
        "zip": "40906"
    },
    {
        "name": "Union College",
        "city": "Lincoln",
        "state": "Nebraska",
        "zip": "68506"
    },
    {
        "name": "Union College",
        "city": "Schenectady",
        "state": "New York",
        "zip": "12308"
    },
    {
        "name": "Union Institute & University",
        "city": "Cincinnati",
        "state": "Ohio",
        "zip": "45206"
    },
    {
        "name": "Union University",
        "city": "Jackson",
        "state": "Tennessee",
        "zip": "38305"
    },
    {
        "name": "United States Merchant Marine Academy",
        "city": "Kings Point",
        "state": "New York",
        "zip": "11024"
    },
    {
        "name": "Unity College",
        "city": "Unity",
        "state": "Maine",
        "zip": "04988"
    },
    {
        "name": "University at Buffalo",
        "city": "Buffalo",
        "state": "New York",
        "zip": "14260"
    },
    {
        "name": "University of Akron Main Campus",
        "city": "Akron",
        "state": "Ohio",
        "zip": "44325"
    },
    {
        "name": "University of Alabama at Birmingham",
        "city": "Birmingham",
        "state": "Alabama",
        "zip": "35294"
    },
    {
        "name": "University of Alabama in Huntsville",
        "city": "Huntsville",
        "state": "Alabama",
        "zip": "35899"
    },
    {
        "name": "University of Alaska Anchorage",
        "city": "Anchorage",
        "state": "Alaska",
        "zip": "99508"
    },
    {
        "name": "University of Alaska Fairbanks",
        "city": "Fairbanks",
        "state": "Alaska",
        "zip": "99775"
    },
    {
        "name": "University of Alaska Southeast",
        "city": "Juneau",
        "state": "Alaska",
        "zip": "99801"
    },
    {
        "name": "University of Arizona",
        "city": "Tucson",
        "state": "Arizona",
        "zip": "85721"
    },
    {
        "name": "University of Arkansas",
        "city": "Fayetteville",
        "state": "Arkansas",
        "zip": "72701"
    },
    {
        "name": "University of Arkansas at Little Rock",
        "city": "Little Rock",
        "state": "Arkansas",
        "zip": "72204"
    },
    {
        "name": "University of Arkansas at Pine Bluff",
        "city": "Pine Bluff",
        "state": "Arkansas",
        "zip": "71601"
    },
    {
        "name": "University of Arkansas-Fort Smith",
        "city": "Fort Smith",
        "state": "Arkansas",
        "zip": "72913"
    },
    {
        "name": "University of Baltimore",
        "city": "Baltimore",
        "state": "Maryland",
        "zip": "21201"
    },
    {
        "name": "University of Bridgeport",
        "city": "Bridgeport",
        "state": "Connecticut",
        "zip": "06604"
    },
    {
        "name": "University of California-Berkeley",
        "city": "Berkeley",
        "state": "California",
        "zip": "94720"
    },
    {
        "name": "University of California-Davis",
        "city": "Davis",
        "state": "California",
        "zip": "95616"
    },
    {
        "name": "University of California-Irvine",
        "city": "Irvine",
        "state": "California",
        "zip": "92697"
    },
    {
        "name": "University of California-Los Angeles",
        "city": "Los Angeles",
        "state": "California",
        "zip": "90095"
    },
    {
        "name": "University of California-Merced",
        "city": "Merced",
        "state": "California",
        "zip": "95343"
    },
    {
        "name": "University of California-Riverside",
        "city": "Riverside",
        "state": "California",
        "zip": "92521"
    },
    {
        "name": "University of California-San Diego",
        "city": "La Jolla",
        "state": "California",
        "zip": "92093"
    },
    {
        "name": "University of California-Santa Barbara",
        "city": "Santa Barbara",
        "state": "California",
        "zip": "93106"
    },
    {
        "name": "University of California-Santa Cruz",
        "city": "Santa Cruz",
        "state": "California",
        "zip": "95064"
    },
    {
        "name": "University of Central Arkansas",
        "city": "Conway",
        "state": "Arkansas",
        "zip": "72035"
    },
    {
        "name": "University of Central Florida",
        "city": "Orlando",
        "state": "Florida",
        "zip": "32816"
    },
    {
        "name": "University of Central Missouri",
        "city": "Warrensburg",
        "state": "Missouri",
        "zip": "64093"
    },
    {
        "name": "University of Central Oklahoma",
        "city": "Edmond",
        "state": "Oklahoma",
        "zip": "73034"
    },
    {
        "name": "University of Charleston",
        "city": "Charleston",
        "state": "West Virginia",
        "zip": "25304"
    },
    {
        "name": "University of Chicago",
        "city": "Chicago",
        "state": "Illinois",
        "zip": "60637"
    },
    {
        "name": "University of Cincinnati",
        "city": "Cincinnati",
        "state": "Ohio",
        "zip": "45221"
    },
    {
        "name": "University of Colorado Boulder",
        "city": "Boulder",
        "state": "Colorado",
        "zip": "80309"
    },
    {
        "name": "University of Colorado Colorado Springs",
        "city": "Colorado Springs",
        "state": "Colorado",
        "zip": "80918"
    },
    {
        "name": "University of Colorado Denver",
        "city": "Denver",
        "state": "Colorado",
        "zip": "80217"
    },
    {
        "name": "University of Connecticut",
        "city": "Storrs",
        "state": "Connecticut",
        "zip": "06269"
    },
    {
        "name": "University of Dallas",
        "city": "Irving",
        "state": "Texas",
        "zip": "75062"
    },
    {
        "name": "University of Dayton",
        "city": "Dayton",
        "state": "Ohio",
        "zip": "45469"
    },
    {
        "name": "University of Delaware",
        "city": "Newark",
        "state": "Delaware",
        "zip": "19716"
    },
    {
        "name": "University of Denver",
        "city": "Denver",
        "state": "Colorado",
        "zip": "80208"
    },
    {
        "name": "University of Detroit Mercy",
        "city": "Detroit",
        "state": "Michigan",
        "zip": "48221"
    },
    {
        "name": "University of Dubuque",
        "city": "Dubuque",
        "state": "Iowa",
        "zip": "52001"
    },
    {
        "name": "University of Evansville",
        "city": "Evansville",
        "state": "Indiana",
        "zip": "47722"
    },
    {
        "name": "University of Florida",
        "city": "Gainesville",
        "state": "Florida",
        "zip": "32611"
    },
    {
        "name": "University of Georgia",
        "city": "Athens",
        "state": "Georgia",
        "zip": "30602"
    },
    {
        "name": "University of Great Falls",
        "city": "Great Falls",
        "state": "Montana",
        "zip": "59405"
    },
    {
        "name": "University of Hartford",
        "city": "West Hartford",
        "state": "Connecticut",
        "zip": "06117"
    },
    {
        "name": "University of Hawaii at Hilo",
        "city": "Hilo",
        "state": "Hawaii",
        "zip": "96720"
    },
    {
        "name": "University of Hawaii at Manoa",
        "city": "Honolulu",
        "state": "Hawaii",
        "zip": "96822"
    },
    {
        "name": "University of Hawaii-West Oahu",
        "city": "Kapolei",
        "state": "Hawaii",
        "zip": "96707"
    },
    {
        "name": "University of Holy Cross",
        "city": "New Orleans",
        "state": "Louisiana",
        "zip": "70131"
    },
    {
        "name": "University of Houston",
        "city": "Houston",
        "state": "Texas",
        "zip": "77204"
    },
    {
        "name": "University of Houston-Clear Lake",
        "city": "Houston",
        "state": "Texas",
        "zip": "77058"
    },
    {
        "name": "University of Houston-Downtown",
        "city": "Houston",
        "state": "Texas",
        "zip": "77002"
    },
    {
        "name": "University of Houston-Victoria",
        "city": "Victoria",
        "state": "Texas",
        "zip": "77901"
    },
    {
        "name": "University of Idaho",
        "city": "Moscow",
        "state": "Idaho",
        "zip": "83844"
    },
    {
        "name": "University of Illinois at Chicago",
        "city": "Chicago",
        "state": "Illinois",
        "zip": "60607"
    },
    {
        "name": "University of Illinois at Springfield",
        "city": "Springfield",
        "state": "Illinois",
        "zip": "62703"
    },
    {
        "name": "University of Illinois at Urbana-Champaign",
        "city": "Champaign",
        "state": "Illinois",
        "zip": "61820"
    },
    {
        "name": "University of Indianapolis",
        "city": "Indianapolis",
        "state": "Indiana",
        "zip": "46227"
    },
    {
        "name": "University of Iowa",
        "city": "Iowa City",
        "state": "Iowa",
        "zip": "52242"
    },
    {
        "name": "University of Jamestown",
        "city": "Jamestown",
        "state": "North Dakota",
        "zip": "58405"
    },
    {
        "name": "University of Kansas",
        "city": "Lawrence",
        "state": "Kansas",
        "zip": "66045"
    },
    {
        "name": "University of Kentucky",
        "city": "Lexington",
        "state": "Kentucky",
        "zip": "40506"
    },
    {
        "name": "University of La Verne",
        "city": "La Verne",
        "state": "California",
        "zip": "91750"
    },
    {
        "name": "University of Louisiana at Lafayette",
        "city": "Lafayette",
        "state": "Louisiana",
        "zip": "70503"
    },
    {
        "name": "University of Louisiana at Monroe",
        "city": "Monroe",
        "state": "Louisiana",
        "zip": "71209"
    },
    {
        "name": "University of Louisville",
        "city": "Louisville",
        "state": "Kentucky",
        "zip": "40292"
    },
    {
        "name": "University of Maine",
        "city": "Orono",
        "state": "Maine",
        "zip": "04469"
    },
    {
        "name": "University of Maine at Augusta",
        "city": "Augusta",
        "state": "Maine",
        "zip": "04330"
    },
    {
        "name": "University of Maine at Farmington",
        "city": "Farmington",
        "state": "Maine",
        "zip": "04938"
    },
    {
        "name": "University of Maine at Fort Kent",
        "city": "Fort Kent",
        "state": "Maine",
        "zip": "04743"
    },
    {
        "name": "University of Maine at Machias",
        "city": "Machias",
        "state": "Maine",
        "zip": "04654"
    },
    {
        "name": "University of Maine at Presque Isle",
        "city": "Presque Isle",
        "state": "Maine",
        "zip": "04769"
    },
    {
        "name": "University of Mary",
        "city": "Bismarck",
        "state": "North Dakota",
        "zip": "58504"
    },
    {
        "name": "University of Mary Hardin-Baylor",
        "city": "Belton",
        "state": "Texas",
        "zip": "76513"
    },
    {
        "name": "University of Mary Washington",
        "city": "Fredericksburg",
        "state": "Virginia",
        "zip": "22401"
    },
    {
        "name": "University of Maryland Eastern Shore",
        "city": "Princess Anne",
        "state": "Maryland",
        "zip": "21853"
    },
    {
        "name": "University of Maryland-Baltimore County",
        "city": "Baltimore",
        "state": "Maryland",
        "zip": "21250"
    },
    {
        "name": "University of Maryland-College Park",
        "city": "College Park",
        "state": "Maryland",
        "zip": "20742"
    },
    {
        "name": "University of Maryland-University College",
        "city": "Adelphi",
        "state": "Maryland",
        "zip": "20783"
    },
    {
        "name": "University of Massachusetts-Amherst",
        "city": "Amherst",
        "state": "Massachusetts",
        "zip": "01003"
    },
    {
        "name": "University of Massachusetts-Boston",
        "city": "Boston",
        "state": "Massachusetts",
        "zip": "02125"
    },
    {
        "name": "University of Massachusetts-Dartmouth",
        "city": "North Dartmouth",
        "state": "Massachusetts",
        "zip": "02747"
    },
    {
        "name": "University of Massachusetts-Lowell",
        "city": "Lowell",
        "state": "Massachusetts",
        "zip": "01854"
    },
    {
        "name": "University of Memphis",
        "city": "Memphis",
        "state": "Tennessee",
        "zip": "38152"
    },
    {
        "name": "University of Miami",
        "city": "Coral Gables",
        "state": "Florida",
        "zip": "33146"
    },
    {
        "name": "University of Michigan-Ann Arbor",
        "city": "Ann Arbor",
        "state": "Michigan",
        "zip": "48109"
    },
    {
        "name": "University of Michigan-Dearborn",
        "city": "Dearborn",
        "state": "Michigan",
        "zip": "48128"
    },
    {
        "name": "University of Michigan-Flint",
        "city": "Flint",
        "state": "Michigan",
        "zip": "48502"
    },
    {
        "name": "University of Minnesota-Crookston",
        "city": "Crookston",
        "state": "Minnesota",
        "zip": "56716"
    },
    {
        "name": "University of Minnesota-Duluth",
        "city": "Duluth",
        "state": "Minnesota",
        "zip": "55812"
    },
    {
        "name": "University of Minnesota-Morris",
        "city": "Morris",
        "state": "Minnesota",
        "zip": "56267"
    },
    {
        "name": "University of Minnesota-Twin Cities",
        "city": "Minneapolis",
        "state": "Minnesota",
        "zip": "55455"
    },
    {
        "name": "University of Mississippi",
        "city": "University",
        "state": "Mississippi",
        "zip": "38677"
    },
    {
        "name": "University of Missouri-Columbia",
        "city": "Columbia",
        "state": "Missouri",
        "zip": "65211"
    },
    {
        "name": "University of Missouri-Kansas City",
        "city": "Kansas City",
        "state": "Missouri",
        "zip": "64110"
    },
    {
        "name": "University of Missouri-St Louis",
        "city": "Saint Louis",
        "state": "Missouri",
        "zip": "63121"
    },
    {
        "name": "University of Mobile",
        "city": "Mobile",
        "state": "Alabama",
        "zip": "36613"
    },
    {
        "name": "University of Montevallo",
        "city": "Montevallo",
        "state": "Alabama",
        "zip": "35115"
    },
    {
        "name": "University of Mount Olive",
        "city": "Mount Olive",
        "state": "North Carolina",
        "zip": "28365"
    },
    {
        "name": "University of Mount Union",
        "city": "Alliance",
        "state": "Ohio",
        "zip": "44601"
    },
    {
        "name": "University of Nebraska at Kearney",
        "city": "Kearney",
        "state": "Nebraska",
        "zip": "68849"
    },
    {
        "name": "University of Nebraska at Omaha",
        "city": "Omaha",
        "state": "Nebraska",
        "zip": "68182"
    },
    {
        "name": "University of Nebraska-Lincoln",
        "city": "Lincoln",
        "state": "Nebraska",
        "zip": "68588"
    },
    {
        "name": "University of Nevada-Las Vegas",
        "city": "Las Vegas",
        "state": "Nevada",
        "zip": "89154"
    },
    {
        "name": "University of Nevada-Reno",
        "city": "Reno",
        "state": "Nevada",
        "zip": "89557"
    },
    {
        "name": "University of New England",
        "city": "Biddeford",
        "state": "Maine",
        "zip": "04005"
    },
    {
        "name": "University of New Hampshire at Manchester",
        "city": "Manchester",
        "state": "New Hampshire",
        "zip": "03101"
    },
    {
        "name": "University of New Hampshire",
        "city": "Durham",
        "state": "New Hampshire",
        "zip": "03824"
    },
    {
        "name": "University of New Haven",
        "city": "West Haven",
        "state": "Connecticut",
        "zip": "06516"
    },
    {
        "name": "University of New Mexico",
        "city": "Albuquerque",
        "state": "New Mexico",
        "zip": "87106"
    },
    {
        "name": "University of New Orleans",
        "city": "New Orleans",
        "state": "Louisiana",
        "zip": "70148"
    },
    {
        "name": "University of North Alabama",
        "city": "Florence",
        "state": "Alabama",
        "zip": "35632"
    },
    {
        "name": "University of North Carolina at Asheville",
        "city": "Asheville",
        "state": "North Carolina",
        "zip": "28804"
    },
    {
        "name": "University of North Carolina at Chapel Hill",
        "city": "Chapel Hill",
        "state": "North Carolina",
        "zip": "27599"
    },
    {
        "name": "University of North Carolina at Charlotte",
        "city": "Charlotte",
        "state": "North Carolina",
        "zip": "28223"
    },
    {
        "name": "University of North Carolina at Greensboro",
        "city": "Greensboro",
        "state": "North Carolina",
        "zip": "27402"
    },
    {
        "name": "University of North Carolina at Pembroke",
        "city": "Pembroke",
        "state": "North Carolina",
        "zip": "28372"
    },
    {
        "name": "University of North Carolina Wilmington",
        "city": "Wilmington",
        "state": "North Carolina",
        "zip": "28403"
    },
    {
        "name": "University of North Dakota",
        "city": "Grand Forks",
        "state": "North Dakota",
        "zip": "58202"
    },
    {
        "name": "University of North Florida",
        "city": "Jacksonville",
        "state": "Florida",
        "zip": "32224"
    },
    {
        "name": "University of North Georgia",
        "city": "Dahlonega",
        "state": "Georgia",
        "zip": "30597"
    },
    {
        "name": "University of North Texas",
        "city": "Denton",
        "state": "Texas",
        "zip": "76203"
    },
    {
        "name": "University of Northern Colorado",
        "city": "Greeley",
        "state": "Colorado",
        "zip": "80639"
    },
    {
        "name": "University of Northern Iowa",
        "city": "Cedar Falls",
        "state": "Iowa",
        "zip": "50614"
    },
    {
        "name": "University of Northwestern-St Paul",
        "city": "Saint Paul",
        "state": "Minnesota",
        "zip": "55113"
    },
    {
        "name": "University of Notre Dame",
        "city": "Notre Dame",
        "state": "Indiana",
        "zip": "46556"
    },
    {
        "name": "University of Oklahoma-Norman Campus",
        "city": "Norman",
        "state": "Oklahoma",
        "zip": "73019"
    },
    {
        "name": "University of Oregon",
        "city": "Eugene",
        "state": "Oregon",
        "zip": "97403"
    },
    {
        "name": "University of Pennsylvania",
        "city": "Philadelphia",
        "state": "Pennsylvania",
        "zip": "19104"
    },
    {
        "name": "University of Pikeville",
        "city": "Pikeville",
        "state": "Kentucky",
        "zip": "41501"
    },
    {
        "name": "University of Pittsburgh-Bradford",
        "city": "Bradford",
        "state": "Pennsylvania",
        "zip": "16701"
    },
    {
        "name": "University of Pittsburgh-Greensburg",
        "city": "Greensburg",
        "state": "Pennsylvania",
        "zip": "15601"
    },
    {
        "name": "University of Pittsburgh-Johnstown",
        "city": "Johnstown",
        "state": "Pennsylvania",
        "zip": "15904"
    },
    {
        "name": "University of Pittsburgh-Pittsburgh Campus",
        "city": "Pittsburgh",
        "state": "Pennsylvania",
        "zip": "15260"
    },
    {
        "name": "University of Portland",
        "city": "Portland",
        "state": "Oregon",
        "zip": "97203"
    },
    {
        "name": "University of Puget Sound",
        "city": "Tacoma",
        "state": "Washington",
        "zip": "98416"
    },
    {
        "name": "University of Redlands",
        "city": "Redlands",
        "state": "California",
        "zip": "92373"
    },
    {
        "name": "University of Rhode Island",
        "city": "Kingston",
        "state": "Rhode Island",
        "zip": "02881"
    },
    {
        "name": "University of Richmond",
        "city": "University of Richmond",
        "state": "Virginia",
        "zip": "23173"
    },
    {
        "name": "University of Rochester",
        "city": "Rochester",
        "state": "New York",
        "zip": "14627"
    },
    {
        "name": "University of Saint Francis-Fort Wayne",
        "city": "Fort Wayne",
        "state": "Indiana",
        "zip": "46808"
    },
    {
        "name": "University of Saint Joseph",
        "city": "West Hartford",
        "state": "Connecticut",
        "zip": "06117"
    },
    {
        "name": "University of Saint Mary",
        "city": "Leavenworth",
        "state": "Kansas",
        "zip": "66048"
    },
    {
        "name": "University of San Diego",
        "city": "San Diego",
        "state": "California",
        "zip": "92110"
    },
    {
        "name": "University of San Francisco",
        "city": "San Francisco",
        "state": "California",
        "zip": "94117"
    },
    {
        "name": "University of Science and Arts of Oklahoma",
        "city": "Chickasha",
        "state": "Oklahoma",
        "zip": "73018"
    },
    {
        "name": "University of Scranton",
        "city": "Scranton",
        "state": "Pennsylvania",
        "zip": "18510"
    },
    {
        "name": "University of Sioux Falls",
        "city": "Sioux Falls",
        "state": "South Dakota",
        "zip": "57105"
    },
    {
        "name": "University of South Alabama",
        "city": "Mobile",
        "state": "Alabama",
        "zip": "36688"
    },
    {
        "name": "University of South Carolina-Aiken",
        "city": "Aiken",
        "state": "South Carolina",
        "zip": "29801"
    },
    {
        "name": "University of South Carolina-Beaufort",
        "city": "Bluffton",
        "state": "South Carolina",
        "zip": "29909"
    },
    {
        "name": "University of South Carolina-Columbia",
        "city": "Columbia",
        "state": "South Carolina",
        "zip": "29208"
    },
    {
        "name": "University of South Carolina-Upstate",
        "city": "Spartanburg",
        "state": "South Carolina",
        "zip": "29303"
    },
    {
        "name": "University of South Dakota",
        "city": "Vermillion",
        "state": "South Dakota",
        "zip": "57069"
    },
    {
        "name": "University of South Florida",
        "city": "Tampa",
        "state": "Florida",
        "zip": "33620"
    },
    {
        "name": "University of South Florida-Sarasota-Manatee",
        "city": "Sarasota",
        "state": "Florida",
        "zip": "34243"
    },
    {
        "name": "University of South Florida-St Petersburg",
        "city": "St. Petersburg",
        "state": "Florida",
        "zip": "33701"
    },
    {
        "name": "University of Southern California",
        "city": "Los Angeles",
        "state": "California",
        "zip": "90089"
    },
    {
        "name": "University of Southern Indiana",
        "city": "Evansville",
        "state": "Indiana",
        "zip": "47712"
    },
    {
        "name": "University of Southern Maine",
        "city": "Portland",
        "state": "Maine",
        "zip": "04103"
    },
    {
        "name": "University of Southern Mississippi",
        "city": "Hattiesburg",
        "state": "Mississippi",
        "zip": "39406"
    },
    {
        "name": "University of St Francis",
        "city": "Joliet",
        "state": "Illinois",
        "zip": "60435"
    },
    {
        "name": "University of St Thomas",
        "city": "Saint Paul",
        "state": "Minnesota",
        "zip": "55105"
    },
    {
        "name": "University of St Thomas",
        "city": "Houston",
        "state": "Texas",
        "zip": "77006"
    },
    {
        "name": "University of the Cumberlands",
        "city": "Williamsburg",
        "state": "Kentucky",
        "zip": "40769"
    },
    {
        "name": "University of the District of Columbia",
        "city": "Washington",
        "state": "District of Columbia",
        "zip": "20008"
    },
    {
        "name": "University of the Incarnate Word",
        "city": "San Antonio",
        "state": "Texas",
        "zip": "78209"
    },
    {
        "name": "University of the Ozarks",
        "city": "Clarksville",
        "state": "Arkansas",
        "zip": "72830"
    },
    {
        "name": "University of the Pacific",
        "city": "Stockton",
        "state": "California",
        "zip": "95211"
    },
    {
        "name": "University of the Southwest",
        "city": "Hobbs",
        "state": "New Mexico",
        "zip": "88240"
    },
    {
        "name": "University of the West",
        "city": "Rosemead",
        "state": "California",
        "zip": "91770"
    },
    {
        "name": "University of Toledo",
        "city": "Toledo",
        "state": "Ohio",
        "zip": "43606"
    },
    {
        "name": "University of Tulsa",
        "city": "Tulsa",
        "state": "Oklahoma",
        "zip": "74104"
    },
    {
        "name": "University of Utah",
        "city": "Salt Lake City",
        "state": "Utah",
        "zip": "84112"
    },
    {
        "name": "University of Valley Forge",
        "city": "Phoenixville",
        "state": "Pennsylvania",
        "zip": "19460"
    },
    {
        "name": "University of Vermont",
        "city": "Burlington",
        "state": "Vermont",
        "zip": "05405"
    },
    {
        "name": "University of Virginia",
        "city": "Charlottesville",
        "state": "Virginia",
        "zip": "22903"
    },
    {
        "name": "University of Washington-Bothell Campus",
        "city": "Bothell",
        "state": "Washington",
        "zip": "98011"
    },
    {
        "name": "University of Washington-Seattle Campus",
        "city": "Seattle",
        "state": "Washington",
        "zip": "98195"
    },
    {
        "name": "University of Washington-Tacoma Campus",
        "city": "Tacoma",
        "state": "Washington",
        "zip": "98402"
    },
    {
        "name": "University of West Alabama",
        "city": "Livingston",
        "state": "Alabama",
        "zip": "35470"
    },
    {
        "name": "University of West Georgia",
        "city": "Carrollton",
        "state": "Georgia",
        "zip": "30118"
    },
    {
        "name": "University of Wisconsin-Eau Claire",
        "city": "Eau Claire",
        "state": "Wisconsin",
        "zip": "54702"
    },
    {
        "name": "University of Wisconsin-Green Bay",
        "city": "Green Bay",
        "state": "Wisconsin",
        "zip": "54311"
    },
    {
        "name": "University of Wisconsin-La Crosse",
        "city": "La Crosse",
        "state": "Wisconsin",
        "zip": "54601"
    },
    {
        "name": "University of Wisconsin-Madison",
        "city": "Madison",
        "state": "Wisconsin",
        "zip": "53706"
    },
    {
        "name": "University of Wisconsin-Milwaukee",
        "city": "Milwaukee",
        "state": "Wisconsin",
        "zip": "53201"
    },
    {
        "name": "University of Wisconsin-Oshkosh",
        "city": "Oshkosh",
        "state": "Wisconsin",
        "zip": "54901"
    },
    {
        "name": "University of Wisconsin-Parkside",
        "city": "Kenosha",
        "state": "Wisconsin",
        "zip": "53141"
    },
    {
        "name": "University of Wisconsin-Platteville",
        "city": "Platteville",
        "state": "Wisconsin",
        "zip": "53818"
    },
    {
        "name": "University of Wisconsin-River Falls",
        "city": "River Falls",
        "state": "Wisconsin",
        "zip": "54022"
    },
    {
        "name": "University of Wisconsin-Stevens Point",
        "city": "Stevens Point",
        "state": "Wisconsin",
        "zip": "54481"
    },
    {
        "name": "University of Wisconsin-Stout",
        "city": "Menomonie",
        "state": "Wisconsin",
        "zip": "54751"
    },
    {
        "name": "University of Wisconsin-Superior",
        "city": "Superior",
        "state": "Wisconsin",
        "zip": "54880"
    },
    {
        "name": "University of Wisconsin-Whitewater",
        "city": "Whitewater",
        "state": "Wisconsin",
        "zip": "53190"
    },
    {
        "name": "University of Wyoming",
        "city": "Laramie",
        "state": "Wyoming",
        "zip": "82071"
    },
    {
        "name": "Upper Iowa University",
        "city": "Fayette",
        "state": "Iowa",
        "zip": "52142"
    },
    {
        "name": "Urbana University",
        "city": "Urbana",
        "state": "Ohio",
        "zip": "43078"
    },
    {
        "name": "Ursinus College",
        "city": "Collegeville",
        "state": "Pennsylvania",
        "zip": "19426"
    },
    {
        "name": "Ursuline College",
        "city": "Pepper Pike",
        "state": "Ohio",
        "zip": "44124"
    },
    {
        "name": "Utah State University",
        "city": "Logan",
        "state": "Utah",
        "zip": "84322"
    },
    {
        "name": "Utah Valley University",
        "city": "Orem",
        "state": "Utah",
        "zip": "84058"
    },
    {
        "name": "Utica College",
        "city": "Utica",
        "state": "New York",
        "zip": "13502"
    },
    {
        "name": "Valdosta State University",
        "city": "Valdosta",
        "state": "Georgia",
        "zip": "31698"
    },
    {
        "name": "Valley City State University",
        "city": "Valley City",
        "state": "North Dakota",
        "zip": "58072"
    },
    {
        "name": "Valparaiso University",
        "city": "Valparaiso",
        "state": "Indiana",
        "zip": "46383"
    },
    {
        "name": "Vanderbilt University",
        "city": "Nashville",
        "state": "Tennessee",
        "zip": "37240"
    },
    {
        "name": "Vanguard University of Southern California",
        "city": "Costa Mesa",
        "state": "California",
        "zip": "92626"
    },
    {
        "name": "Vassar College",
        "city": "Poughkeepsie",
        "state": "New York",
        "zip": "12604"
    },
    {
        "name": "Villanova University",
        "city": "Villanova",
        "state": "Pennsylvania",
        "zip": "19085"
    },
    {
        "name": "Virginia Commonwealth University",
        "city": "Richmond",
        "state": "Virginia",
        "zip": "23284"
    },
    {
        "name": "Virginia Military Institute",
        "city": "Lexington",
        "state": "Virginia",
        "zip": "24450"
    },
    {
        "name": "Virginia Polytechnic Institute and State University",
        "city": "Blacksburg",
        "state": "Virginia",
        "zip": "24061"
    },
    {
        "name": "Virginia State University",
        "city": "Petersburg",
        "state": "Virginia",
        "zip": "23806"
    },
    {
        "name": "Virginia Union University",
        "city": "Richmond",
        "state": "Virginia",
        "zip": "23220"
    },
    {
        "name": "Virginia Wesleyan College",
        "city": "Norfolk",
        "state": "Virginia",
        "zip": "23502"
    },
    {
        "name": "Viterbo University",
        "city": "La Crosse",
        "state": "Wisconsin",
        "zip": "54601"
    },
    {
        "name": "Voorhees College",
        "city": "Denmark",
        "state": "South Carolina",
        "zip": "29042"
    },
    {
        "name": "Wabash College",
        "city": "Crawfordsville",
        "state": "Indiana",
        "zip": "47933"
    },
    {
        "name": "Wagner College",
        "city": "Staten Island",
        "state": "New York",
        "zip": "10301"
    },
    {
        "name": "Wake Forest University",
        "city": "Winston-Salem",
        "state": "North Carolina",
        "zip": "27106"
    },
    {
        "name": "Walla Walla University",
        "city": "College Place",
        "state": "Washington",
        "zip": "99324"
    },
    {
        "name": "Walsh University",
        "city": "North Canton",
        "state": "Ohio",
        "zip": "44720"
    },
    {
        "name": "Warner Pacific College",
        "city": "Portland",
        "state": "Oregon",
        "zip": "97215"
    },
    {
        "name": "Warner Pacific College Adult Degree Program",
        "city": "Portland",
        "state": "Oregon",
        "zip": "97266"
    },
    {
        "name": "Warner University",
        "city": "Lake Wales",
        "state": "Florida",
        "zip": "33859"
    },
    {
        "name": "Warren Wilson College",
        "city": "Swannanoa",
        "state": "North Carolina",
        "zip": "28778"
    },
    {
        "name": "Wartburg College",
        "city": "Waverly",
        "state": "Iowa",
        "zip": "50677"
    },
    {
        "name": "Washburn University",
        "city": "Topeka",
        "state": "Kansas",
        "zip": "66621"
    },
    {
        "name": "Washington & Jefferson College",
        "city": "Washington",
        "state": "Pennsylvania",
        "zip": "15301"
    },
    {
        "name": "Washington Adventist University",
        "city": "Takoma Park",
        "state": "Maryland",
        "zip": "20912"
    },
    {
        "name": "Washington and Lee University",
        "city": "Lexington",
        "state": "Virginia",
        "zip": "24450"
    },
    {
        "name": "Washington College",
        "city": "Chestertown",
        "state": "Maryland",
        "zip": "21620"
    },
    {
        "name": "Washington State University",
        "city": "Pullman",
        "state": "Washington",
        "zip": "99164"
    },
    {
        "name": "Washington University in St Louis",
        "city": "Saint Louis",
        "state": "Missouri",
        "zip": "63130"
    },
    {
        "name": "Wayland Baptist University",
        "city": "Plainview",
        "state": "Texas",
        "zip": "79072"
    },
    {
        "name": "Wayne State College",
        "city": "Wayne",
        "state": "Nebraska",
        "zip": "68787"
    },
    {
        "name": "Wayne State University",
        "city": "Detroit",
        "state": "Michigan",
        "zip": "48202"
    },
    {
        "name": "Waynesburg University",
        "city": "Waynesburg",
        "state": "Pennsylvania",
        "zip": "15370"
    },
    {
        "name": "Webber International University",
        "city": "Babson Park",
        "state": "Florida",
        "zip": "33827"
    },
    {
        "name": "Weber State University",
        "city": "Ogden",
        "state": "Utah",
        "zip": "84408"
    },
    {
        "name": "Webster University",
        "city": "Saint Louis",
        "state": "Missouri",
        "zip": "63119"
    },
    {
        "name": "Welch College",
        "city": "Nashville",
        "state": "Tennessee",
        "zip": "37205"
    },
    {
        "name": "Wellesley College",
        "city": "Wellesley",
        "state": "Massachusetts",
        "zip": "02481"
    },
    {
        "name": "Wells College",
        "city": "Aurora",
        "state": "New York",
        "zip": "13026"
    },
    {
        "name": "Wentworth Institute of Technology",
        "city": "Boston",
        "state": "Massachusetts",
        "zip": "02115"
    },
    {
        "name": "Wesley College",
        "city": "Dover",
        "state": "Delaware",
        "zip": "19901"
    },
    {
        "name": "Wesleyan College",
        "city": "Macon",
        "state": "Georgia",
        "zip": "31210"
    },
    {
        "name": "Wesleyan University",
        "city": "Middletown",
        "state": "Connecticut",
        "zip": "06459"
    },
    {
        "name": "West Chester University of Pennsylvania",
        "city": "West Chester",
        "state": "Pennsylvania",
        "zip": "19383"
    },
    {
        "name": "West Liberty University",
        "city": "West Liberty",
        "state": "West Virginia",
        "zip": "26074"
    },
    {
        "name": "West Texas A & M University",
        "city": "Canyon",
        "state": "Texas",
        "zip": "79016"
    },
    {
        "name": "West Virginia State University",
        "city": "Institute",
        "state": "West Virginia",
        "zip": "25112"
    },
    {
        "name": "West Virginia University",
        "city": "Morgantown",
        "state": "West Virginia",
        "zip": "26506"
    },
    {
        "name": "West Virginia University Institute of Technology",
        "city": "Montgomery",
        "state": "West Virginia",
        "zip": "25136"
    },
    {
        "name": "West Virginia Wesleyan College",
        "city": "Buckhannon",
        "state": "West Virginia",
        "zip": "26201"
    },
    {
        "name": "Western Carolina University",
        "city": "Cullowhee",
        "state": "North Carolina",
        "zip": "28723"
    },
    {
        "name": "Western Connecticut State University",
        "city": "Danbury",
        "state": "Connecticut",
        "zip": "06810"
    },
    {
        "name": "Western Illinois University",
        "city": "Macomb",
        "state": "Illinois",
        "zip": "61455"
    },
    {
        "name": "Western Kentucky University",
        "city": "Bowling Green",
        "state": "Kentucky",
        "zip": "42101"
    },
    {
        "name": "Western Michigan University",
        "city": "Kalamazoo",
        "state": "Michigan",
        "zip": "49008"
    },
    {
        "name": "Western New England University",
        "city": "Springfield",
        "state": "Massachusetts",
        "zip": "01119"
    },
    {
        "name": "Western New Mexico University",
        "city": "Silver City",
        "state": "New Mexico",
        "zip": "88061"
    },
    {
        "name": "Western Oregon University",
        "city": "Monmouth",
        "state": "Oregon",
        "zip": "97361"
    },
    {
        "name": "Western State Colorado University",
        "city": "Gunnison",
        "state": "Colorado",
        "zip": "81231"
    },
    {
        "name": "Western Washington University",
        "city": "Bellingham",
        "state": "Washington",
        "zip": "98225"
    },
    {
        "name": "Westfield State University",
        "city": "Westfield",
        "state": "Massachusetts",
        "zip": "01086"
    },
    {
        "name": "Westminster College",
        "city": "Fulton",
        "state": "Missouri",
        "zip": "65251"
    },
    {
        "name": "Westminster College",
        "city": "New Wilmington",
        "state": "Pennsylvania",
        "zip": "16172"
    },
    {
        "name": "Westminster College",
        "city": "Salt Lake City",
        "state": "Utah",
        "zip": "84105"
    },
    {
        "name": "Westmont College",
        "city": "Santa Barbara",
        "state": "California",
        "zip": "93108"
    },
    {
        "name": "Wheaton College",
        "city": "Wheaton",
        "state": "Illinois",
        "zip": "60187"
    },
    {
        "name": "Wheaton College",
        "city": "Norton",
        "state": "Massachusetts",
        "zip": "02766"
    },
    {
        "name": "Wheeling Jesuit University",
        "city": "Wheeling",
        "state": "West Virginia",
        "zip": "26003"
    },
    {
        "name": "Wheelock College",
        "city": "Boston",
        "state": "Massachusetts",
        "zip": "02215"
    },
    {
        "name": "Whitman College",
        "city": "Walla Walla",
        "state": "Washington",
        "zip": "99362"
    },
    {
        "name": "Whittier College",
        "city": "Whittier",
        "state": "California",
        "zip": "90601"
    },
    {
        "name": "Whitworth University",
        "city": "Spokane",
        "state": "Washington",
        "zip": "99251"
    },
    {
        "name": "Wichita State University",
        "city": "Wichita",
        "state": "Kansas",
        "zip": "67260"
    },
    {
        "name": "Widener University",
        "city": "Chester",
        "state": "Pennsylvania",
        "zip": "19013"
    },
    {
        "name": "Wilberforce University",
        "city": "Wilberforce",
        "state": "Ohio",
        "zip": "45384"
    },
    {
        "name": "Wiley College",
        "city": "Marshall",
        "state": "Texas",
        "zip": "75670"
    },
    {
        "name": "Wilkes University",
        "city": "Wilkes-Barre",
        "state": "Pennsylvania",
        "zip": "18766"
    },
    {
        "name": "Willamette University",
        "city": "Salem",
        "state": "Oregon",
        "zip": "97301"
    },
    {
        "name": "William Carey University",
        "city": "Hattiesburg",
        "state": "Mississippi",
        "zip": "39401"
    },
    {
        "name": "William Jessup University",
        "city": "Rocklin",
        "state": "California",
        "zip": "95765"
    },
    {
        "name": "William Jewell College",
        "city": "Liberty",
        "state": "Missouri",
        "zip": "64068"
    },
    {
        "name": "William Paterson University of New Jersey",
        "city": "Wayne",
        "state": "New Jersey",
        "zip": "07470"
    },
    {
        "name": "William Peace University",
        "city": "Raleigh",
        "state": "North Carolina",
        "zip": "27604"
    },
    {
        "name": "William Penn University",
        "city": "Oskaloosa",
        "state": "Iowa",
        "zip": "52577"
    },
    {
        "name": "William Woods University",
        "city": "Fulton",
        "state": "Missouri",
        "zip": "65251"
    },
    {
        "name": "Williams Baptist College",
        "city": "Walnut Ridge",
        "state": "Arkansas",
        "zip": "72476"
    },
    {
        "name": "Williams College",
        "city": "Williamstown",
        "state": "Massachusetts",
        "zip": "01267"
    },
    {
        "name": "Wilmington College",
        "city": "Wilmington",
        "state": "Ohio",
        "zip": "45177"
    },
    {
        "name": "Wilmington University",
        "city": "New Castle",
        "state": "Delaware",
        "zip": "19720"
    },
    {
        "name": "Wilson College",
        "city": "Chambersburg",
        "state": "Pennsylvania",
        "zip": "17201"
    },
    {
        "name": "Wingate University",
        "city": "Wingate",
        "state": "North Carolina",
        "zip": "28174"
    },
    {
        "name": "Winona State University",
        "city": "Winona",
        "state": "Minnesota",
        "zip": "55987"
    },
    {
        "name": "Winston-Salem State University",
        "city": "Winston-Salem",
        "state": "North Carolina",
        "zip": "27110"
    },
    {
        "name": "Winthrop University",
        "city": "Rock Hill",
        "state": "South Carolina",
        "zip": "29733"
    },
    {
        "name": "Wisconsin Lutheran College",
        "city": "Milwaukee",
        "state": "Wisconsin",
        "zip": "53226"
    },
    {
        "name": "Wittenberg University",
        "city": "Springfield",
        "state": "Ohio",
        "zip": "45504"
    },
    {
        "name": "Wofford College",
        "city": "Spartanburg",
        "state": "South Carolina",
        "zip": "29303"
    },
    {
        "name": "Woodbury University",
        "city": "Burbank",
        "state": "California",
        "zip": "91510"
    },
    {
        "name": "Worcester Polytechnic Institute",
        "city": "Worcester",
        "state": "Massachusetts",
        "zip": "01609"
    },
    {
        "name": "Worcester State University",
        "city": "Worcester",
        "state": "Massachusetts",
        "zip": "01602"
    },
    {
        "name": "Wright State University-Lake Campus",
        "city": "Celina",
        "state": "Ohio",
        "zip": "45822"
    },
    {
        "name": "Wright State University",
        "city": "Dayton",
        "state": "Ohio",
        "zip": "45435"
    },
    {
        "name": "Xavier University",
        "city": "Cincinnati",
        "state": "Ohio",
        "zip": "45207"
    },
    {
        "name": "Xavier University of Louisiana",
        "city": "New Orleans",
        "state": "Louisiana",
        "zip": "70125"
    },
    {
        "name": "Yale University",
        "city": "New Haven",
        "state": "Connecticut",
        "zip": "06520"
    },
    {
        "name": "Yeshiva University",
        "city": "New York",
        "state": "New York",
        "zip": "10033"
    },
    {
        "name": "York College",
        "city": "York",
        "state": "Nebraska",
        "zip": "68467"
    },
    {
        "name": "York College Pennsylvania",
        "city": "York",
        "state": "Pennsylvania",
        "zip": "17403"
    },
    {
        "name": "Young Harris College",
        "city": "Young Harris",
        "state": "Georgia",
        "zip": "30582"
    },
    {
        "name": "Youngstown State University",
        "city": "Youngstown",
        "state": "Ohio",
        "zip": "44555"
    }
]